{"type": "FeatureCollection", "features": [{"type": "Feature", "properties": {"name": "Ludhiana", "source": "Datameet Census 2011 district maps (ODbL), https://github.com/datameet/maps", "area_ha": 358480, "simplified_tolerance_deg": 0.0001}, "geometry": {"type": "Polygon", "coordinates": [[[75.93378097396162, 31.0105723582334], [75.94205243148514, 31.008119978300673], [75.95361759915929, 31.011852790305607], [75.95716455464083, 31.01912468162122], [75.97014494651847, 31.015627242943903], [75.98268599445066, 31.011364524365465], [75.99145629439992, 31.01015034158217], [75.99281740345526, 31.004740203066376], [75.99082401565695, 31.000243296914487], [76.0000050079213, 30.988955003651846], [76.0071675410087, 30.995788546688487], [76.01565209759356, 30.99475796223253], [76.03757678037222, 30.996130981719194], [76.04799165587802, 30.99572540598121], [76.05633901754562, 30.997274190726838], [76.07706418040232, 30.99542994441075], [76.08700651138304, 30.993640476562618], [76.09546833694779, 30.99065051393722], [76.09912806022166, 30.98803899187629], [76.1027148962187, 30.987110592848744], [76.11413459517918, 30.98765639446886], [76.13476490599096, 30.98637350128861], [76.14105251778247, 30.987270921969], [76.14979003627965, 30.990655438261822], [76.16583229080112, 30.993228936751706], [76.17559090012787, 30.99679575669015], [76.18030175720162, 30.99366349669361], [76.18554590485826, 30.992699059563595], [76.1875000964599, 30.99638886526063], [76.18376909571441, 31.000567045432724], [76.19343223152423, 31.002564216756486], [76.20718566312885, 31.00601180581731], [76.21363480730257, 31.006453562857132], [76.21812307338362, 31.00066190508467], [76.21828040960399, 30.99893025236363], [76.23084129623678, 30.99802377043298], [76.24170547197608, 30.99823270563383], [76.25052562213841, 30.994503324451685], [76.2535824198151, 30.99493985539147], [76.27184468134675, 30.979833821034315], [76.29007725989547, 30.97988319783419], [76.29239672287116, 30.98724264915512], [76.3083782506216, 30.991622840407164], [76.31600119649016, 30.983067931094485], [76.31688833287447, 30.971836235409366], [76.31641708280424, 30.97134693804965], [76.31698438408455, 30.971162467761125], [76.31854939695846, 30.9513405874817], [76.32275391834142, 30.9398986834601], [76.32428980535968, 30.930821630582507], [76.32188943243762, 30.92820535076697], [76.31594573938474, 30.925203183742735], [76.317054879123, 30.91981582984137], [76.32072873299565, 30.915189609707824], [76.32148359168936, 30.878199597235408], [76.32808997006754, 30.879006020410014], [76.32774286348585, 30.885758533455792], [76.33297957825307, 30.896861500461238], [76.33642120527159, 30.898752067540617], [76.3392549536642, 30.906840735844128], [76.34879508006861, 30.91231599747104], [76.36078178385927, 30.908221477385684], [76.36521930040145, 30.904912929395547], [76.36937419929944, 30.899181691288], [76.37283172608036, 30.89000452444733], [76.37488332063558, 30.87796386595114], [76.37427535251992, 30.875264475874502], [76.3701400592367, 30.87239996617373], [76.35932470892435, 30.869085012265536], [76.35725613808218, 30.866188500146134], [76.34969342135574, 30.86453507455439], [76.3439615847908, 30.859500813031527], [76.33709100539625, 30.858707308650118], [76.32820083939656, 30.859956636753527], [76.32285429236543, 30.86450958365953], [76.31563876941564, 30.868840420538614], [76.31265277305732, 30.87110961723967], [76.3111515530034, 30.872513610704335], [76.30657048979805, 30.87241006616352], [76.30432366616168, 30.870921334782008], [76.29824677531978, 30.87204186077502], [76.29589602481113, 30.87396566742461], [76.2912765425122, 30.875118982136645], [76.28498559413218, 30.876413886198716], [76.28377463435562, 30.875128179248858], [76.28238518754154, 30.8745000799798], [76.25458772927479, 30.836191965318662], [76.26224348042578, 30.821383020695222], [76.25232784549253, 30.799591839045448], [76.26481807128633, 30.765154703235797], [76.26942021440854, 30.736642969467546], [76.27123708116866, 30.732681733595502], [76.27483019062748, 30.728061937590976], [76.28225536831957, 30.720317061275228], [76.29107765038259, 30.7129508342193], [76.29724735537512, 30.715206757354256], [76.30181427492384, 30.71939096900745], [76.31341268556491, 30.725530011987072], [76.3182574277939, 30.72082327533922], [76.32713823769696, 30.708553304596297], [76.33075746041716, 30.712180768125943], [76.33352485186501, 30.71345393282886], [76.34005464536516, 30.714313529674154], [76.3443505454026, 30.713655921101317], [76.34720770764127, 30.71141689024565], [76.35016577419714, 30.705364477320643], [76.34852779606771, 30.701877767778715], [76.35000959979071, 30.693201123710967], [76.34930784449855, 30.69235381950359], [76.34564994488098, 30.684818483092304], [76.34483912765269, 30.679405815265067], [76.34048282339252, 30.675795901880473], [76.33685661575521, 30.674361692860618], [76.32999626808778, 30.66629676354427], [76.32391692848587, 30.662599658504284], [76.31753755026672, 30.662368800873484], [76.30632231569078, 30.6671374602636], [76.30242438354433, 30.674498149025425], [76.30289583977799, 30.67708170694705], [76.29850627274394, 30.679289906015192], [76.28176203610128, 30.680805315312547], [76.27820953763404, 30.677580051080252], [76.27271495293866, 30.675192375532756], [76.26552384693757, 30.67468497590485], [76.25933416641021, 30.676521888694147], [76.25464807892706, 30.679832581119022], [76.24738339258207, 30.678874876550775], [76.24132302300532, 30.680188459896744], [76.23743246656696, 30.683658649061236], [76.2357521191503, 30.687897291959295], [76.23464068868547, 30.688781027721582], [76.22561472611594, 30.68859053796179], [76.21925196335809, 30.684206805722013], [76.21648928889702, 30.67773561380021], [76.21433156492792, 30.676387622075417], [76.20830635597557, 30.674524592477653], [76.20118901656127, 30.673778481284838], [76.19813529926712, 30.67412769926734], [76.18552022513731, 30.666260258302785], [76.18179413573931, 30.670939668726003], [76.18229146343636, 30.6771665625613], [76.17942767939874, 30.679293079794007], [76.17388370916916, 30.67794285109736], [76.1711880861972, 30.674127511139922], [76.17165728755305, 30.66921194759041], [76.17109306727092, 30.665295780396363], [76.16730146023552, 30.6601154490029], [76.16191129729621, 30.656684237640377], [76.15360889204484, 30.65399766256055], [76.15252379029425, 30.653035144479315], [76.15196003982412, 30.639425048085183], [76.15126962520849, 30.637936997651117], [76.13606990620067, 30.632947231286746], [76.12955893188791, 30.630004654719198], [76.12531212529775, 30.62460177543849], [76.12604003489922, 30.621821817895224], [76.11500691586075, 30.613546618028], [76.12211403239482, 30.603696815952883], [76.11989021151356, 30.59960320279216], [76.12392300862608, 30.596417279371874], [76.11998210100924, 30.592652974972246], [76.11307797032238, 30.58960867872882], [76.11154742105393, 30.584502792274748], [76.11300740521818, 30.578983774084378], [76.11129903594917, 30.576972837845815], [76.1076200053962, 30.57521187186349], [76.10715741403887, 30.5622369011561], [76.10101978761759, 30.559982576275967], [76.09577287003704, 30.561840811501785], [76.09185951172361, 30.566665530601053], [76.08875892155413, 30.567148808144076], [76.08358745699432, 30.561790301269948], [76.07669139620434, 30.564239124128843], [76.07150226018219, 30.563793904590888], [76.06876592687078, 30.565917502664437], [76.06587239960379, 30.569554853439204], [76.06785184822438, 30.579924468646418], [76.06511454404693, 30.58206619002479], [76.06248211077822, 30.580142045711366], [76.05920640033196, 30.578997725379352], [76.04566210706174, 30.58641284294721], [76.03779894211381, 30.587177014184554], [76.03553105757787, 30.589242766875902], [76.03230199874382, 30.599727800965855], [76.03293919404912, 30.604177134376204], [76.03208995342725, 30.6074566094626], [76.03027810663104, 30.60905342969372], [76.03024579214929, 30.613372082073035], [76.02803818793674, 30.614863205654657], [76.01092400550966, 30.61232407365767], [76.00706924306381, 30.610936050625032], [76.00362897287332, 30.602230849175474], [76.00003435393849, 30.600497089272746], [75.99212808578118, 30.598030857612546], [75.98730245535958, 30.5981451518882], [75.98365291485382, 30.596884991515935], [75.97496952285465, 30.591806987450315], [75.96270839693719, 30.58764536708521], [75.96038693197205, 30.585229074914505], [75.95751883345874, 30.57612052791898], [75.95055172310757, 30.57185605741039], [75.9424669621769, 30.56944225395271], [75.93770112572695, 30.568980513331795], [75.9287211616275, 30.575901144078536], [75.92702813413928, 30.58632704207623], [75.92351917555054, 30.588629930155083], [75.92517818957442, 30.591400445341534], [75.93094696292049, 30.595713571528876], [75.92581603298996, 30.605509015969083], [75.91873351301372, 30.609089035856158], [75.91204437180012, 30.608573916905016], [75.90548450431143, 30.604368344268277], [75.89581218339826, 30.605587573852855], [75.89033084925035, 30.610084301530442], [75.8901543836582, 30.620327916403962], [75.88069510198773, 30.625286038266825], [75.87586502307427, 30.630018084097152], [75.87640290972763, 30.638249844241496], [75.8966296373473, 30.646430193955492], [75.89757083976716, 30.654036501434984], [75.89493424727146, 30.660030584690464], [75.88633503882292, 30.663776311825735], [75.88422272567722, 30.66792321251098], [75.88409428776544, 30.671722515377695], [75.8807867719193, 30.675007304266856], [75.87237345945688, 30.676503724106606], [75.8593192264065, 30.67016709742596], [75.85355244856186, 30.670573463225157], [75.84303263361248, 30.68629707861838], [75.83621764631148, 30.68779584168553], [75.83441916033223, 30.685259102318145], [75.82566238798711, 30.67891996603785], [75.82320658425401, 30.669350570217382], [75.81749585697142, 30.66427713991335], [75.80763007904545, 30.664800594161957], [75.79781870804472, 30.662596246809635], [75.79126095970291, 30.659657212651084], [75.78568373894024, 30.65925253134884], [75.78708661778863, 30.66409248048166], [75.78477266995067, 30.671290582378656], [75.77774926938586, 30.67209143940462], [75.7703266036226, 30.672205106238323], [75.76568183938467, 30.665576108952656], [75.76568185169982, 30.65607384396114], [75.77568173535245, 30.6576908997886], [75.77918791606595, 30.64622709044292], [75.78117494027686, 30.64312019488792], [75.80016742555273, 30.631443425813504], [75.78949217471386, 30.623196174200068], [75.78598954782163, 30.623603835792444], [75.78149442386368, 30.62924226010531], [75.7661286332403, 30.634936588955], [75.76275860555455, 30.637751427111457], [75.76016812312632, 30.634644435276535], [75.75208117042213, 30.630603364752577], [75.74042228283115, 30.628808726220512], [75.73850140116606, 30.62667869352326], [75.73399665172799, 30.61803585776575], [75.73127708378419, 30.615779608934655], [75.72738102139593, 30.618136692032014], [75.72240996261475, 30.62671859227699], [75.71089163894214, 30.640466685440348], [75.70293146153978, 30.6370618598016], [75.69631723902009, 30.636942105559644], [75.69472710632995, 30.6380336549858], [75.68748555661693, 30.649954837754876], [75.67028835171493, 30.64985068372127], [75.65505337752761, 30.6344616921538], [75.64690615252364, 30.63427157802364], [75.64525089739153, 30.63318058014275], [75.6439298719306, 30.631097427331003], [75.64413438726297, 30.628629968099826], [75.64307721896728, 30.624935711944055], [75.64122143262396, 30.62280620866329], [75.63499223874224, 30.6201481290712], [75.63294919843281, 30.6161713122299], [75.62639472687535, 30.61368237854322], [75.62116560244364, 30.61983636019396], [75.61955977661354, 30.620762304200472], [75.61320563508671, 30.62195801518182], [75.6089748315206, 30.621140078418446], [75.60116125671824, 30.617441402439425], [75.59526541222331, 30.616340397275323], [75.5849950650495, 30.624377260991103], [75.57810766956094, 30.622407677624604], [75.5728065551141, 30.625445236625463], [75.56929490731835, 30.62883746214778], [75.56054572769948, 30.631465315620588], [75.55763105663364, 30.633186871683094], [75.55094023556705, 30.63328768721872], [75.54782833308786, 30.628901205549692], [75.54565775553836, 30.622341606208714], [75.54560782144102, 30.616694828803706], [75.55122999981317, 30.617392472851897], [75.55639011779529, 30.61902361394239], [75.55838634387307, 30.612692020684303], [75.55397455221369, 30.602948941467506], [75.54696339317813, 30.59573562005055], [75.5399529541582, 30.59393909566473], [75.53464392354863, 30.600083983915248], [75.53363755004284, 30.606127173604243], [75.53164625217387, 30.611137619251494], [75.52866749882946, 30.612445605893843], [75.52026399356929, 30.60661469837917], [75.51816413652193, 30.59854315513789], [75.51127599785082, 30.598239114975648], [75.50167379339206, 30.600803889881885], [75.49525191590598, 30.598249196011437], [75.48690723077661, 30.599673022999873], [75.4786927227136, 30.602352505123168], [75.47001510591359, 30.6034782355313], [75.46769733146287, 30.605260674610395], [75.46517847706896, 30.603924228628284], [75.4639287130342, 30.60058418073557], [75.46208031881525, 30.5991978130596], [75.45591769800969, 30.60090945330295], [75.45281048692712, 30.59870603579397], [75.45011209603548, 30.594612312193455], [75.4476001091345, 30.59253511870896], [75.44349812762809, 30.59291869170974], [75.44150212070802, 30.59400573954488], [75.43866920227327, 30.591471465538], [75.43125964822283, 30.58901901123328], [75.43087257920159, 30.58482499076229], [75.4275726291557, 30.583484307105056], [75.42451779611505, 30.58462366885697], [75.41929392170643, 30.584842520522464], [75.40799288972917, 30.582398313536412], [75.39941510696373, 30.591043542509077], [75.40104275170587, 30.59888417618202], [75.40445621554814, 30.606327009747673], [75.40436963205332, 30.612825221672903], [75.40164362218187, 30.616848809236156], [75.39639380241762, 30.621212560478593], [75.39499361794665, 30.62616029591261], [75.38129044863048, 30.622362052118685], [75.37785025398779, 30.622753609802086], [75.37730345436735, 30.626783737697007], [75.37919819686365, 30.634736652176535], [75.37351763601598, 30.648933524916448], [75.3794520140777, 30.657307010807056], [75.38148207606423, 30.66359031019538], [75.37966082500881, 30.674865332461646], [75.37719292801148, 30.67802239948729], [75.37261024076932, 30.6819237428492], [75.37132991298766, 30.688889780141732], [75.37308126543782, 30.697358622064744], [75.3711362310361, 30.705873280582225], [75.37257895108317, 30.709108956386256], [75.38067070973183, 30.709014026778863], [75.38325080697054, 30.71023432564857], [75.38562491651237, 30.713121507450328], [75.3866177059488, 30.7158872909922], [75.38718985915764, 30.72193639840961], [75.38227487006172, 30.72312725386226], [75.37721901432737, 30.730250825591703], [75.37699176039249, 30.734979098747782], [75.38062970317084, 30.73838190222458], [75.37788620525035, 30.74834021732079], [75.38110975352815, 30.75249432111442], [75.38394219772269, 30.759639793194626], [75.38404698412239, 30.76880084670788], [75.38872794702843, 30.775783408977244], [75.39228574010937, 30.783227535558563], [75.39318893226054, 30.7921501888474], [75.39712860404234, 30.80385889484693], [75.39671429778629, 30.808928486634702], [75.39252120854796, 30.811446689644388], [75.38607092877973, 30.81372736055527], [75.37782198610786, 30.820836876538475], [75.37138449520114, 30.839584843696052], [75.37262144791796, 30.84666553885689], [75.37446472692216, 30.850761376715326], [75.37398640585745, 30.8565778740719], [75.38625557626811, 30.860749217261315], [75.38838649890492, 30.86328575590593], [75.39828720966857, 30.87086606893559], [75.40042576078804, 30.879506417520656], [75.40255804609612, 30.884121421168686], [75.4070090866915, 30.88885187019355], [75.40715085831825, 30.89385839741532], [75.40039750559345, 30.898159242192545], [75.39455679857842, 30.9082782390048], [75.39335543279367, 30.9090803473643], [75.37811719093789, 30.911856949609092], [75.38162650509307, 30.920800475568736], [75.38136008420936, 30.925297268955568], [75.37968143747237, 30.92944340528503], [75.3759304295895, 30.92955658782341], [75.37402985430882, 30.927698338861152], [75.37123530526284, 30.929135862880152], [75.37020068101778, 30.93993759647539], [75.36582995720222, 30.940727317572495], [75.36522617560621, 30.952724054893235], [75.36259141077723, 30.956897518942128], [75.3633306865802, 30.961203177550953], [75.36674180840147, 30.967311158044076], [75.36575148074022, 30.973184684886785], [75.35542732789614, 30.98890132202482], [75.37176169270874, 30.98879362705513], [75.3907900228245, 30.98580960610399], [75.40972397147657, 30.979472654622228], [75.42117658358812, 30.986604051516537], [75.42824329255644, 30.98148517600798], [75.44137589298865, 30.982317825567495], [75.45289182306713, 30.9800350300897], [75.46514433579279, 30.979091876711312], [75.47531803363049, 30.97688446451874], [75.49439352466831, 30.970569047017825], [75.51028084746409, 30.974007084519563], [75.51868491813163, 30.972164004150923], [75.53912476941731, 30.972773245492046], [75.54915482844822, 30.974860000443254], [75.56228145645883, 30.976212612988693], [75.56366772894405, 30.97846090171984], [75.57453652481536, 30.977773523854413], [75.58133418792576, 30.973805553321252], [75.58387402215197, 30.971311788519007], [75.59131659533547, 30.972188661186756], [75.59622603116385, 30.969173985183627], [75.60261448392775, 30.968930337345576], [75.61077038901554, 30.970967411966537], [75.6143927873106, 30.973923882408457], [75.63215392806846, 30.97628116001899], [75.6438759585605, 30.981344051216347], [75.6581354428598, 30.98270987797348], [75.66339858709459, 30.98452121860413], [75.674052493431, 30.985694098835758], [75.68068540681074, 30.9902905667093], [75.69127128409181, 30.99339699232248], [75.70000179054847, 30.99508829928378], [75.70233130155081, 30.994957759437167], [75.70707799981128, 30.99895988340334], [75.71857394366512, 31.00088264427614], [75.71831517851014, 31.00505927845772], [75.73072901773179, 31.00427409369191], [75.73601768154829, 31.00579127477265], [75.738049564057, 31.011269792670934], [75.75987461570362, 31.0149928566714], [75.7618890737608, 31.010683679017173], [75.77132766380198, 31.010375391747576], [75.77109808128453, 31.003879800097703], [75.77714444993043, 31.00451104240246], [75.77873651378935, 31.00287156476797], [75.78203794410788, 31.000787329535445], [75.78535746206055, 30.997265021723084], [75.79263203842784, 30.995036360021494], [75.79923277519016, 30.993963869983254], [75.80655404787173, 30.994590208122332], [75.82568997049216, 31.00069724880984], [75.82750482021136, 31.004429147482764], [75.84578233724916, 31.01036099577534], [75.85964177380265, 31.00588526264188], [75.86739484283652, 31.006780076077458], [75.87116626772794, 31.01047407472113], [75.88344651756277, 31.009536873182327], [75.8868535426696, 31.007416852928355], [75.89310764239056, 31.007962214172096], [75.89585912125735, 31.005779859140564], [75.89850733335514, 31.00688304977906], [75.89809016638682, 31.01224302105632], [75.90061975616408, 31.01576351458327], [75.90896522891323, 31.018616584236593], [75.91735004340211, 31.01920970481398], [75.93378097396162, 31.0105723582334]]]}}]}