{
"type": "FeatureCollection",
"name": "punjab_state_geoboundaries_adm1",
"crs": { "type": "name", "properties": { "name": "urn:ogc:def:crs:OGC:1.3:CRS84" } },
"xy_coordinate_resolution": 1e-05,
"features": [
{ "type": "Feature", "properties": { "shapeName": "Punjab", "source": "geoBoundaries gbOpen IND (CC BY 4.0), https://www.geoboundaries.org" }, "geometry": { "type": "Polygon", "coordinates": [ [ [ 74.52716, 29.94279 ], [ 74.53174, 29.9492 ], [ 74.54199, 29.94011 ], [ 74.56076, 29.92926 ], [ 74.55897, 29.92709 ], [ 74.57413, 29.92697 ], [ 74.58244, 29.92435 ], [ 74.58784, 29.91818 ], [ 74.59669, 29.91227 ], [ 74.62923, 29.90503 ], [ 74.64684, 29.90435 ], [ 74.65418, 29.90557 ], [ 74.64919, 29.9075 ], [ 74.64669, 29.91142 ], [ 74.6516, 29.92648 ], [ 74.66972, 29.93921 ], [ 74.68203, 29.94334 ], [ 74.68632, 29.94931 ], [ 74.68898, 29.95914 ], [ 74.69361, 29.96685 ], [ 74.70218, 29.97194 ], [ 74.70664, 29.9769 ], [ 74.70666, 29.97058 ], [ 74.72836, 29.96152 ], [ 74.73139, 29.96147 ], [ 74.74027, 29.9684 ], [ 74.75332, 29.96782 ], [ 74.7535, 29.96998 ], [ 74.75842, 29.97036 ], [ 74.75834, 29.97206 ], [ 74.763, 29.97324 ], [ 74.77944, 29.97196 ], [ 74.80598, 29.99196 ], [ 74.81243, 29.99234 ], [ 74.81877, 29.99059 ], [ 74.8243, 29.98574 ], [ 74.82631, 29.9772 ], [ 74.82101, 29.97093 ], [ 74.82868, 29.97331 ], [ 74.83845, 29.97112 ], [ 74.84376, 29.96426 ], [ 74.85073, 29.96179 ], [ 74.85537, 29.95637 ], [ 74.86469, 29.9601 ], [ 74.8699, 29.96002 ], [ 74.87573, 29.95751 ], [ 74.88797, 29.96713 ], [ 74.90324, 29.95218 ], [ 74.90061, 29.94525 ], [ 74.89542, 29.94058 ], [ 74.89728, 29.93942 ], [ 74.90649, 29.94037 ], [ 74.91287, 29.94332 ], [ 74.91912, 29.94715 ], [ 74.92283, 29.95203 ], [ 74.92674, 29.95026 ], [ 74.92678, 29.94581 ], [ 74.93537, 29.93132 ], [ 74.93637, 29.92626 ], [ 74.94168, 29.91755 ], [ 74.94367, 29.91718 ], [ 74.9482, 29.90681 ], [ 74.95371, 29.9014 ], [ 74.97019, 29.89771 ], [ 74.97876, 29.89416 ], [ 74.9771, 29.8884 ], [ 74.99091, 29.86769 ], [ 74.9989, 29.8661 ], [ 75.00491, 29.86894 ], [ 75.0225, 29.86627 ], [ 75.03288, 29.87982 ], [ 75.04694, 29.88509 ], [ 75.05184, 29.88408 ], [ 75.05609, 29.8781 ], [ 75.06525, 29.8788 ], [ 75.06995, 29.87706 ], [ 75.07445, 29.88227 ], [ 75.07603, 29.89087 ], [ 75.07528, 29.89636 ], [ 75.08045, 29.90082 ], [ 75.08207, 29.90728 ], [ 75.08689, 29.91538 ], [ 75.08877, 29.9172 ], [ 75.09875, 29.9128 ], [ 75.09901, 29.91109 ], [ 75.10729, 29.90407 ], [ 75.10926, 29.90411 ], [ 75.11035, 29.90192 ], [ 75.1104, 29.89272 ], [ 75.1147, 29.87867 ], [ 75.10683, 29.86801 ], [ 75.09337, 29.85799 ], [ 75.08972, 29.85863 ], [ 75.09006, 29.85402 ], [ 75.10313, 29.84176 ], [ 75.11136, 29.84193 ], [ 75.11886, 29.83196 ], [ 75.10151, 29.82156 ], [ 75.1003, 29.81941 ], [ 75.10072, 29.80679 ], [ 75.10446, 29.80482 ], [ 75.11822, 29.80271 ], [ 75.12664, 29.80689 ], [ 75.13508, 29.8073 ], [ 75.13682, 29.80597 ], [ 75.14051, 29.78559 ], [ 75.14645, 29.78184 ], [ 75.15096, 29.77554 ], [ 75.15546, 29.7769 ], [ 75.16295, 29.78091 ], [ 75.16688, 29.78519 ], [ 75.16661, 29.78823 ], [ 75.15906, 29.80134 ], [ 75.16062, 29.80639 ], [ 75.16018, 29.81286 ], [ 75.16404, 29.82411 ], [ 75.17004, 29.82819 ], [ 75.1759, 29.82811 ], [ 75.19146, 29.84125 ], [ 75.19649, 29.83778 ], [ 75.21065, 29.83242 ], [ 75.21399, 29.824 ], [ 75.20965, 29.81735 ], [ 75.20853, 29.79317 ], [ 75.21471, 29.79179 ], [ 75.21626, 29.78772 ], [ 75.22628, 29.78915 ], [ 75.22472, 29.7799 ], [ 75.23658, 29.75702 ], [ 75.24158, 29.75465 ], [ 75.23815, 29.73997 ], [ 75.22632, 29.72889 ], [ 75.21746, 29.73715 ], [ 75.21031, 29.73882 ], [ 75.20061, 29.72649 ], [ 75.19687, 29.71571 ], [ 75.19777, 29.70326 ], [ 75.20023, 29.70107 ], [ 75.20757, 29.70155 ], [ 75.20677, 29.68752 ], [ 75.19878, 29.68001 ], [ 75.18811, 29.68135 ], [ 75.18727, 29.67594 ], [ 75.18391, 29.67334 ], [ 75.17957, 29.67451 ], [ 75.17711, 29.67063 ], [ 75.16753, 29.67019 ], [ 75.1681, 29.66656 ], [ 75.17463, 29.65561 ], [ 75.18001, 29.65287 ], [ 75.18759, 29.6518 ], [ 75.18218, 29.63597 ], [ 75.18304, 29.62841 ], [ 75.19682, 29.61933 ], [ 75.20673, 29.62191 ], [ 75.21968, 29.61543 ], [ 75.22147, 29.61111 ], [ 75.22836, 29.60544 ], [ 75.23375, 29.60238 ], [ 75.23535, 29.60308 ], [ 75.22741, 29.58722 ], [ 75.2217, 29.58029 ], [ 75.22679, 29.57902 ], [ 75.23193, 29.5748 ], [ 75.2344, 29.57001 ], [ 75.23379, 29.56433 ], [ 75.23838, 29.55886 ], [ 75.23908, 29.55073 ], [ 75.23534, 29.54208 ], [ 75.24446, 29.5467 ], [ 75.27324, 29.54999 ], [ 75.28035, 29.55398 ], [ 75.28113, 29.56147 ], [ 75.29828, 29.5586 ], [ 75.30944, 29.56085 ], [ 75.31127, 29.58016 ], [ 75.31991, 29.58743 ], [ 75.31655, 29.59039 ], [ 75.31399, 29.58927 ], [ 75.3056, 29.59568 ], [ 75.30343, 29.60259 ], [ 75.28966, 29.60782 ], [ 75.29489, 29.61572 ], [ 75.29571, 29.62505 ], [ 75.30727, 29.62478 ], [ 75.31114, 29.62951 ], [ 75.31656, 29.63063 ], [ 75.32346, 29.64248 ], [ 75.32099, 29.64727 ], [ 75.32222, 29.65162 ], [ 75.33183, 29.66319 ], [ 75.33373, 29.67349 ], [ 75.34103, 29.67526 ], [ 75.34863, 29.66659 ], [ 75.35808, 29.66076 ], [ 75.36014, 29.66261 ], [ 75.35981, 29.66815 ], [ 75.35423, 29.67491 ], [ 75.35366, 29.6796 ], [ 75.34889, 29.68629 ], [ 75.3457, 29.69602 ], [ 75.35142, 29.69608 ], [ 75.35857, 29.69977 ], [ 75.35788, 29.70441 ], [ 75.35905, 29.70552 ], [ 75.36462, 29.70393 ], [ 75.37078, 29.70448 ], [ 75.36985, 29.71087 ], [ 75.37297, 29.71328 ], [ 75.37633, 29.7141 ], [ 75.37861, 29.71289 ], [ 75.38019, 29.71422 ], [ 75.38399, 29.71221 ], [ 75.39224, 29.7133 ], [ 75.38922, 29.71615 ], [ 75.3911, 29.717 ], [ 75.39072, 29.71904 ], [ 75.39344, 29.72199 ], [ 75.38813, 29.72799 ], [ 75.38816, 29.72989 ], [ 75.39133, 29.73281 ], [ 75.39545, 29.73358 ], [ 75.39642, 29.73947 ], [ 75.4013, 29.74022 ], [ 75.40475, 29.73901 ], [ 75.40628, 29.76127 ], [ 75.41392, 29.77001 ], [ 75.41935, 29.77023 ], [ 75.42139, 29.7751 ], [ 75.42168, 29.77303 ], [ 75.42745, 29.77087 ], [ 75.43834, 29.78005 ], [ 75.44754, 29.78382 ], [ 75.45117, 29.78145 ], [ 75.45395, 29.78202 ], [ 75.45582, 29.7843 ], [ 75.45602, 29.79049 ], [ 75.45815, 29.79477 ], [ 75.45284, 29.80186 ], [ 75.45516, 29.80572 ], [ 75.45951, 29.80753 ], [ 75.46225, 29.80732 ], [ 75.47957, 29.7928 ], [ 75.48552, 29.79154 ], [ 75.49215, 29.78579 ], [ 75.49725, 29.78441 ], [ 75.50274, 29.7779 ], [ 75.51858, 29.77583 ], [ 75.52324, 29.76917 ], [ 75.52193, 29.75984 ], [ 75.52301, 29.75842 ], [ 75.52488, 29.76187 ], [ 75.52837, 29.76284 ], [ 75.53267, 29.77063 ], [ 75.53793, 29.77335 ], [ 75.54067, 29.7736 ], [ 75.54486, 29.77081 ], [ 75.56209, 29.77024 ], [ 75.56972, 29.75681 ], [ 75.57215, 29.7433 ], [ 75.58004, 29.73945 ], [ 75.58985, 29.74753 ], [ 75.60091, 29.74958 ], [ 75.60524, 29.75196 ], [ 75.60765, 29.74855 ], [ 75.61669, 29.74426 ], [ 75.62977, 29.74993 ], [ 75.63446, 29.75528 ], [ 75.63515, 29.7723 ], [ 75.63776, 29.7739 ], [ 75.64023, 29.77251 ], [ 75.64243, 29.7751 ], [ 75.65009, 29.7757 ], [ 75.65595, 29.77377 ], [ 75.66095, 29.77684 ], [ 75.66405, 29.77522 ], [ 75.66805, 29.77741 ], [ 75.67715, 29.77659 ], [ 75.68168, 29.77228 ], [ 75.68264, 29.76695 ], [ 75.69132, 29.75593 ], [ 75.70311, 29.75229 ], [ 75.70641, 29.7532 ], [ 75.70922, 29.75655 ], [ 75.70572, 29.7597 ], [ 75.70464, 29.76363 ], [ 75.70736, 29.76929 ], [ 75.71028, 29.77061 ], [ 75.71235, 29.77407 ], [ 75.70978, 29.77799 ], [ 75.7101, 29.78042 ], [ 75.71662, 29.78874 ], [ 75.71272, 29.79265 ], [ 75.71457, 29.796 ], [ 75.71414, 29.80186 ], [ 75.71795, 29.80302 ], [ 75.71804, 29.80866 ], [ 75.72087, 29.8098 ], [ 75.72064, 29.81356 ], [ 75.73257, 29.81253 ], [ 75.73778, 29.81405 ], [ 75.74686, 29.80733 ], [ 75.7506, 29.80762 ], [ 75.75615, 29.80502 ], [ 75.7788, 29.82237 ], [ 75.78295, 29.82083 ], [ 75.78703, 29.81609 ], [ 75.78876, 29.81112 ], [ 75.80561, 29.80475 ], [ 75.80984, 29.80565 ], [ 75.81579, 29.80419 ], [ 75.82139, 29.80695 ], [ 75.82593, 29.81532 ], [ 75.83027, 29.81182 ], [ 75.8348, 29.81449 ], [ 75.83773, 29.81304 ], [ 75.8349, 29.80881 ], [ 75.83796, 29.79711 ], [ 75.83698, 29.79427 ], [ 75.84047, 29.78869 ], [ 75.84366, 29.78986 ], [ 75.84581, 29.7823 ], [ 75.85289, 29.77806 ], [ 75.85352, 29.77641 ], [ 75.85139, 29.77272 ], [ 75.85831, 29.77082 ], [ 75.85993, 29.76795 ], [ 75.86672, 29.76655 ], [ 75.87034, 29.75756 ], [ 75.87022, 29.74933 ], [ 75.88132, 29.75115 ], [ 75.88447, 29.74954 ], [ 75.88592, 29.74541 ], [ 75.89881, 29.74627 ], [ 75.90078, 29.7489 ], [ 75.90445, 29.74895 ], [ 75.90225, 29.75152 ], [ 75.9063, 29.75404 ], [ 75.91522, 29.74719 ], [ 75.91515, 29.74287 ], [ 75.91942, 29.74136 ], [ 75.92328, 29.7372 ], [ 75.93867, 29.73069 ], [ 75.94111, 29.73156 ], [ 75.94732, 29.7294 ], [ 75.95069, 29.73196 ], [ 75.95482, 29.73195 ], [ 75.96754, 29.72943 ], [ 75.97343, 29.73043 ], [ 75.97532, 29.72866 ], [ 75.98439, 29.72713 ], [ 75.98886, 29.73395 ], [ 75.99487, 29.73928 ], [ 75.99893, 29.74104 ], [ 76.00794, 29.7409 ], [ 76.0167, 29.74317 ], [ 76.01948, 29.74784 ], [ 76.02395, 29.74906 ], [ 76.02607, 29.75618 ], [ 76.03065, 29.75475 ], [ 76.03088, 29.74764 ], [ 76.03238, 29.74641 ], [ 76.03708, 29.7436 ], [ 76.04344, 29.74273 ], [ 76.04962, 29.7481 ], [ 76.05016, 29.75301 ], [ 76.05437, 29.75775 ], [ 76.05679, 29.76538 ], [ 76.06021, 29.76467 ], [ 76.06707, 29.77399 ], [ 76.07252, 29.77861 ], [ 76.07675, 29.77491 ], [ 76.08262, 29.78119 ], [ 76.08469, 29.78455 ], [ 76.08293, 29.78798 ], [ 76.08497, 29.80076 ], [ 76.0895, 29.80116 ], [ 76.09806, 29.81064 ], [ 76.10506, 29.81185 ], [ 76.11582, 29.80234 ], [ 76.11998, 29.8009 ], [ 76.11965, 29.79231 ], [ 76.12392, 29.79094 ], [ 76.1332, 29.80448 ], [ 76.1417, 29.81087 ], [ 76.14159, 29.81549 ], [ 76.14546, 29.81911 ], [ 76.15323, 29.82006 ], [ 76.16447, 29.81764 ], [ 76.17372, 29.81794 ], [ 76.18485, 29.82276 ], [ 76.19779, 29.84479 ], [ 76.20267, 29.84305 ], [ 76.21198, 29.84305 ], [ 76.22053, 29.83788 ], [ 76.2206, 29.84673 ], [ 76.22221, 29.84876 ], [ 76.22722, 29.8518 ], [ 76.23045, 29.85151 ], [ 76.23243, 29.85374 ], [ 76.23813, 29.85203 ], [ 76.24379, 29.85244 ], [ 76.24384, 29.86896 ], [ 76.24673, 29.87599 ], [ 76.23826, 29.87873 ], [ 76.22938, 29.88566 ], [ 76.22679, 29.88637 ], [ 76.22624, 29.88382 ], [ 76.22229, 29.88498 ], [ 76.22127, 29.8834 ], [ 76.21737, 29.88407 ], [ 76.21292, 29.88708 ], [ 76.21081, 29.89134 ], [ 76.20914, 29.88991 ], [ 76.20953, 29.8858 ], [ 76.20129, 29.88374 ], [ 76.19911, 29.88461 ], [ 76.19948, 29.8884 ], [ 76.19343, 29.88566 ], [ 76.18972, 29.89043 ], [ 76.18631, 29.89086 ], [ 76.18563, 29.89248 ], [ 76.18927, 29.9087 ], [ 76.18778, 29.92066 ], [ 76.18525, 29.92052 ], [ 76.18137, 29.92365 ], [ 76.17915, 29.92267 ], [ 76.17546, 29.92387 ], [ 76.17195, 29.92631 ], [ 76.17249, 29.92885 ], [ 76.17812, 29.9334 ], [ 76.17816, 29.9421 ], [ 76.1799, 29.94527 ], [ 76.18373, 29.94834 ], [ 76.1888, 29.94773 ], [ 76.1938, 29.95201 ], [ 76.1906, 29.95519 ], [ 76.19301, 29.96218 ], [ 76.19713, 29.96234 ], [ 76.1949, 29.96376 ], [ 76.19534, 29.96589 ], [ 76.20573, 29.97433 ], [ 76.20475, 29.97695 ], [ 76.20589, 29.9804 ], [ 76.20182, 29.98479 ], [ 76.20186, 29.98709 ], [ 76.20293, 29.98974 ], [ 76.20803, 29.98609 ], [ 76.21071, 29.98819 ], [ 76.2065, 29.99348 ], [ 76.21145, 29.99548 ], [ 76.20994, 29.99819 ], [ 76.21105, 30.00218 ], [ 76.20995, 30.00515 ], [ 76.21604, 30.00798 ], [ 76.22625, 30.00884 ], [ 76.23109, 30.01364 ], [ 76.231, 30.01587 ], [ 76.23287, 30.01597 ], [ 76.21319, 30.02272 ], [ 76.21482, 30.0291 ], [ 76.21368, 30.03169 ], [ 76.2225, 30.03693 ], [ 76.2222, 30.04925 ], [ 76.2285, 30.05353 ], [ 76.22626, 30.05936 ], [ 76.22893, 30.06012 ], [ 76.2363, 30.0676 ], [ 76.24622, 30.08189 ], [ 76.24926, 30.08234 ], [ 76.24824, 30.08486 ], [ 76.24965, 30.08695 ], [ 76.25346, 30.08896 ], [ 76.24639, 30.09437 ], [ 76.24117, 30.10171 ], [ 76.23693, 30.10368 ], [ 76.23815, 30.10545 ], [ 76.23623, 30.10648 ], [ 76.23463, 30.1048 ], [ 76.23042, 30.10629 ], [ 76.22346, 30.11195 ], [ 76.21672, 30.11008 ], [ 76.21628, 30.11247 ], [ 76.2204, 30.1155 ], [ 76.21658, 30.12417 ], [ 76.22465, 30.12708 ], [ 76.21506, 30.13525 ], [ 76.21457, 30.14047 ], [ 76.20718, 30.14459 ], [ 76.207, 30.1495 ], [ 76.20951, 30.15466 ], [ 76.20763, 30.15659 ], [ 76.21444, 30.15596 ], [ 76.21342, 30.1528 ], [ 76.21634, 30.15221 ], [ 76.21598, 30.15034 ], [ 76.21842, 30.14781 ], [ 76.22395, 30.14709 ], [ 76.22714, 30.14455 ], [ 76.23457, 30.145 ], [ 76.23224, 30.14009 ], [ 76.24331, 30.13241 ], [ 76.24273, 30.12917 ], [ 76.24536, 30.12821 ], [ 76.24681, 30.13075 ], [ 76.25567, 30.12606 ], [ 76.25528, 30.12363 ], [ 76.25297, 30.12293 ], [ 76.25366, 30.12161 ], [ 76.26775, 30.11446 ], [ 76.27516, 30.11462 ], [ 76.27852, 30.1103 ], [ 76.28531, 30.10621 ], [ 76.2906, 30.10778 ], [ 76.29657, 30.11444 ], [ 76.30754, 30.10876 ], [ 76.31952, 30.09711 ], [ 76.31927, 30.09581 ], [ 76.32174, 30.0951 ], [ 76.3315, 30.09979 ], [ 76.33988, 30.09874 ], [ 76.34413, 30.10086 ], [ 76.34471, 30.10482 ], [ 76.34623, 30.10392 ], [ 76.34612, 30.10622 ], [ 76.3544, 30.11692 ], [ 76.3602, 30.12021 ], [ 76.35215, 30.12182 ], [ 76.34203, 30.12637 ], [ 76.33348, 30.13821 ], [ 76.33393, 30.14203 ], [ 76.33778, 30.14331 ], [ 76.34686, 30.14281 ], [ 76.34747, 30.14534 ], [ 76.35047, 30.14687 ], [ 76.35304, 30.14305 ], [ 76.35926, 30.13978 ], [ 76.36129, 30.12977 ], [ 76.36692, 30.12422 ], [ 76.36073, 30.12259 ], [ 76.36218, 30.12016 ], [ 76.36788, 30.11765 ], [ 76.38885, 30.11328 ], [ 76.40004, 30.11671 ], [ 76.39842, 30.12062 ], [ 76.39483, 30.12202 ], [ 76.39595, 30.12616 ], [ 76.39115, 30.13506 ], [ 76.39761, 30.14021 ], [ 76.40087, 30.13893 ], [ 76.40681, 30.14495 ], [ 76.41007, 30.14508 ], [ 76.40175, 30.15383 ], [ 76.395, 30.15801 ], [ 76.39137, 30.16436 ], [ 76.39346, 30.16698 ], [ 76.38715, 30.17063 ], [ 76.39634, 30.17962 ], [ 76.40296, 30.18215 ], [ 76.40359, 30.1867 ], [ 76.40639, 30.19038 ], [ 76.42271, 30.19228 ], [ 76.4343, 30.18315 ], [ 76.43379, 30.18076 ], [ 76.43037, 30.17802 ], [ 76.43489, 30.17553 ], [ 76.44056, 30.16588 ], [ 76.43649, 30.15599 ], [ 76.43346, 30.15587 ], [ 76.42856, 30.15059 ], [ 76.43221, 30.14699 ], [ 76.43974, 30.14371 ], [ 76.43768, 30.14227 ], [ 76.43747, 30.13628 ], [ 76.4405, 30.13147 ], [ 76.44387, 30.1305 ], [ 76.45085, 30.1322 ], [ 76.45554, 30.13047 ], [ 76.45801, 30.13187 ], [ 76.45799, 30.13024 ], [ 76.45996, 30.12949 ], [ 76.4563, 30.11546 ], [ 76.45709, 30.11019 ], [ 76.46252, 30.10106 ], [ 76.47273, 30.09771 ], [ 76.50449, 30.09387 ], [ 76.51387, 30.08365 ], [ 76.51185, 30.07202 ], [ 76.52984, 30.07847 ], [ 76.53802, 30.07473 ], [ 76.54622, 30.07587 ], [ 76.54836, 30.07793 ], [ 76.54806, 30.08076 ], [ 76.55227, 30.08031 ], [ 76.55637, 30.08257 ], [ 76.56052, 30.09342 ], [ 76.57525, 30.10062 ], [ 76.56701, 30.10645 ], [ 76.55572, 30.11065 ], [ 76.54851, 30.11175 ], [ 76.54566, 30.10587 ], [ 76.5395, 30.10819 ], [ 76.54878, 30.12129 ], [ 76.54557, 30.12492 ], [ 76.55543, 30.12493 ], [ 76.55322, 30.12195 ], [ 76.5536, 30.11998 ], [ 76.5763, 30.11014 ], [ 76.58409, 30.10919 ], [ 76.58851, 30.11142 ], [ 76.59933, 30.11254 ], [ 76.60305, 30.11864 ], [ 76.61273, 30.12677 ], [ 76.62347, 30.14022 ], [ 76.63183, 30.14214 ], [ 76.63409, 30.14659 ], [ 76.64223, 30.14968 ], [ 76.63881, 30.15181 ], [ 76.63327, 30.16696 ], [ 76.62243, 30.1676 ], [ 76.61657, 30.17426 ], [ 76.6003, 30.18392 ], [ 76.60465, 30.18895 ], [ 76.60335, 30.1931 ], [ 76.61069, 30.19793 ], [ 76.61416, 30.20448 ], [ 76.61706, 30.20105 ], [ 76.63627, 30.19662 ], [ 76.64502, 30.18884 ], [ 76.64251, 30.18617 ], [ 76.63539, 30.18397 ], [ 76.63179, 30.18026 ], [ 76.62873, 30.17945 ], [ 76.63115, 30.17563 ], [ 76.63449, 30.174 ], [ 76.63424, 30.16975 ], [ 76.6359, 30.16863 ], [ 76.64129, 30.16962 ], [ 76.64533, 30.17484 ], [ 76.64726, 30.17391 ], [ 76.65077, 30.17595 ], [ 76.65309, 30.18219 ], [ 76.65608, 30.18525 ], [ 76.64978, 30.19105 ], [ 76.65331, 30.20109 ], [ 76.63882, 30.20624 ], [ 76.63536, 30.20436 ], [ 76.62175, 30.20514 ], [ 76.61576, 30.20905 ], [ 76.6166, 30.21355 ], [ 76.62332, 30.21695 ], [ 76.62737, 30.22409 ], [ 76.62325, 30.2282 ], [ 76.60355, 30.2378 ], [ 76.59999, 30.23456 ], [ 76.59622, 30.23741 ], [ 76.59608, 30.23879 ], [ 76.60263, 30.24393 ], [ 76.60364, 30.2492 ], [ 76.60287, 30.25167 ], [ 76.59609, 30.25571 ], [ 76.59064, 30.25346 ], [ 76.59185, 30.24604 ], [ 76.58532, 30.24534 ], [ 76.57186, 30.23632 ], [ 76.56795, 30.23196 ], [ 76.56558, 30.23195 ], [ 76.56265, 30.22576 ], [ 76.54804, 30.22249 ], [ 76.54555, 30.22524 ], [ 76.54761, 30.22681 ], [ 76.55557, 30.22676 ], [ 76.56197, 30.24153 ], [ 76.55814, 30.24993 ], [ 76.55665, 30.26248 ], [ 76.55957, 30.26488 ], [ 76.562, 30.262 ], [ 76.5719, 30.26528 ], [ 76.57512, 30.26192 ], [ 76.5806, 30.26524 ], [ 76.58379, 30.27027 ], [ 76.58647, 30.26858 ], [ 76.588, 30.26487 ], [ 76.5929, 30.26178 ], [ 76.60111, 30.27036 ], [ 76.60868, 30.26794 ], [ 76.60971, 30.27044 ], [ 76.6116, 30.26957 ], [ 76.61439, 30.27255 ], [ 76.62051, 30.265 ], [ 76.62341, 30.26459 ], [ 76.62721, 30.26942 ], [ 76.62557, 30.27124 ], [ 76.63141, 30.27613 ], [ 76.63033, 30.27743 ], [ 76.63213, 30.2839 ], [ 76.6354, 30.28964 ], [ 76.63884, 30.28443 ], [ 76.64999, 30.29071 ], [ 76.65566, 30.29843 ], [ 76.66617, 30.30552 ], [ 76.67049, 30.31151 ], [ 76.67704, 30.30791 ], [ 76.68188, 30.3113 ], [ 76.68597, 30.31462 ], [ 76.68104, 30.31826 ], [ 76.68857, 30.32732 ], [ 76.69561, 30.32162 ], [ 76.70003, 30.3281 ], [ 76.70485, 30.32593 ], [ 76.711, 30.32584 ], [ 76.71636, 30.33607 ], [ 76.72227, 30.33329 ], [ 76.72973, 30.33887 ], [ 76.72735, 30.34111 ], [ 76.7326, 30.34837 ], [ 76.73845, 30.34637 ], [ 76.74607, 30.34958 ], [ 76.7452, 30.35053 ], [ 76.74872, 30.35218 ], [ 76.74879, 30.361 ], [ 76.74539, 30.36788 ], [ 76.73753, 30.37046 ], [ 76.7356, 30.36834 ], [ 76.73337, 30.36887 ], [ 76.72569, 30.36189 ], [ 76.71989, 30.36338 ], [ 76.71894, 30.3666 ], [ 76.73122, 30.37971 ], [ 76.72958, 30.38231 ], [ 76.71947, 30.37881 ], [ 76.71759, 30.38009 ], [ 76.71862, 30.38253 ], [ 76.71282, 30.39025 ], [ 76.71509, 30.39749 ], [ 76.71453, 30.40249 ], [ 76.72219, 30.39905 ], [ 76.72512, 30.40223 ], [ 76.7282, 30.40041 ], [ 76.73797, 30.40839 ], [ 76.74008, 30.41213 ], [ 76.73502, 30.41913 ], [ 76.74103, 30.42429 ], [ 76.74103, 30.42627 ], [ 76.74883, 30.42921 ], [ 76.75759, 30.42764 ], [ 76.76876, 30.43081 ], [ 76.77723, 30.44127 ], [ 76.78383, 30.43802 ], [ 76.78757, 30.43351 ], [ 76.78034, 30.42959 ], [ 76.77732, 30.42483 ], [ 76.7896, 30.41502 ], [ 76.79511, 30.41871 ], [ 76.80389, 30.41255 ], [ 76.8111, 30.41641 ], [ 76.81815, 30.41223 ], [ 76.82336, 30.4116 ], [ 76.82884, 30.41489 ], [ 76.83927, 30.42609 ], [ 76.8362, 30.42966 ], [ 76.83773, 30.43161 ], [ 76.84372, 30.43741 ], [ 76.84677, 30.43813 ], [ 76.85101, 30.43531 ], [ 76.8561, 30.4177 ], [ 76.86828, 30.41399 ], [ 76.87442, 30.40952 ], [ 76.88334, 30.4087 ], [ 76.88133, 30.40591 ], [ 76.88432, 30.40433 ], [ 76.88231, 30.40052 ], [ 76.88392, 30.39773 ], [ 76.88084, 30.39385 ], [ 76.88333, 30.39213 ], [ 76.88621, 30.3941 ], [ 76.89508, 30.38699 ], [ 76.89505, 30.38476 ], [ 76.89794, 30.38215 ], [ 76.89135, 30.37382 ], [ 76.89027, 30.36948 ], [ 76.89653, 30.35972 ], [ 76.90182, 30.36238 ], [ 76.90577, 30.36184 ], [ 76.91555, 30.36525 ], [ 76.92114, 30.37466 ], [ 76.93585, 30.38471 ], [ 76.93942, 30.39478 ], [ 76.93189, 30.4005 ], [ 76.92125, 30.40033 ], [ 76.91833, 30.398 ], [ 76.91118, 30.39991 ], [ 76.91798, 30.40649 ], [ 76.91579, 30.41481 ], [ 76.9112, 30.4192 ], [ 76.91471, 30.42509 ], [ 76.90974, 30.42946 ], [ 76.90733, 30.42505 ], [ 76.90181, 30.42449 ], [ 76.89862, 30.4258 ], [ 76.90653, 30.43582 ], [ 76.90463, 30.43403 ], [ 76.90096, 30.43551 ], [ 76.89735, 30.43422 ], [ 76.89797, 30.43141 ], [ 76.8949, 30.42733 ], [ 76.88641, 30.42967 ], [ 76.8906, 30.44104 ], [ 76.89604, 30.43954 ], [ 76.89696, 30.44172 ], [ 76.89521, 30.44604 ], [ 76.89898, 30.44646 ], [ 76.90216, 30.45334 ], [ 76.91226, 30.4658 ], [ 76.91102, 30.47087 ], [ 76.89694, 30.48115 ], [ 76.89863, 30.48332 ], [ 76.89894, 30.48885 ], [ 76.9036, 30.49144 ], [ 76.90869, 30.49194 ], [ 76.91076, 30.49433 ], [ 76.9189, 30.4895 ], [ 76.93112, 30.50092 ], [ 76.92857, 30.5076 ], [ 76.92922, 30.51714 ], [ 76.932, 30.52224 ], [ 76.92147, 30.52624 ], [ 76.91558, 30.52576 ], [ 76.91222, 30.53043 ], [ 76.91247, 30.534 ], [ 76.9062, 30.53718 ], [ 76.90213, 30.5365 ], [ 76.89605, 30.53817 ], [ 76.88814, 30.54594 ], [ 76.88648, 30.54988 ], [ 76.88715, 30.55108 ], [ 76.89393, 30.54869 ], [ 76.90492, 30.543 ], [ 76.91614, 30.55372 ], [ 76.91752, 30.55916 ], [ 76.9153, 30.56197 ], [ 76.90892, 30.56478 ], [ 76.91769, 30.57606 ], [ 76.91492, 30.57845 ], [ 76.91511, 30.58223 ], [ 76.91978, 30.58521 ], [ 76.90963, 30.59193 ], [ 76.9202, 30.59329 ], [ 76.92715, 30.60366 ], [ 76.92231, 30.60564 ], [ 76.92599, 30.61012 ], [ 76.91988, 30.61182 ], [ 76.91598, 30.60995 ], [ 76.91349, 30.61146 ], [ 76.91182, 30.61309 ], [ 76.91328, 30.61402 ], [ 76.91305, 30.61691 ], [ 76.91005, 30.6262 ], [ 76.90275, 30.62442 ], [ 76.8997, 30.62819 ], [ 76.89553, 30.62897 ], [ 76.8928, 30.6311 ], [ 76.89592, 30.6331 ], [ 76.89644, 30.63588 ], [ 76.8851, 30.64533 ], [ 76.87755, 30.6442 ], [ 76.87478, 30.6409 ], [ 76.87119, 30.64218 ], [ 76.87424, 30.67396 ], [ 76.87642, 30.68056 ], [ 76.86828, 30.67351 ], [ 76.8592, 30.66105 ], [ 76.853, 30.65725 ], [ 76.85116, 30.65824 ], [ 76.84684, 30.65671 ], [ 76.8446, 30.66219 ], [ 76.84805, 30.66617 ], [ 76.84577, 30.66869 ], [ 76.83254, 30.66317 ], [ 76.82999, 30.67592 ], [ 76.83126, 30.67908 ], [ 76.8273, 30.68219 ], [ 76.82182, 30.6785 ], [ 76.82076, 30.67495 ], [ 76.8166, 30.67294 ], [ 76.81632, 30.67143 ], [ 76.81179, 30.67026 ], [ 76.80857, 30.66737 ], [ 76.80306, 30.66641 ], [ 76.80025, 30.67026 ], [ 76.79632, 30.66771 ], [ 76.78995, 30.67564 ], [ 76.78121, 30.67434 ], [ 76.77659, 30.6704 ], [ 76.764, 30.68642 ], [ 76.75241, 30.68454 ], [ 76.74991, 30.68836 ], [ 76.74773, 30.6876 ], [ 76.74714, 30.69555 ], [ 76.73929, 30.69291 ], [ 76.7396, 30.69812 ], [ 76.73787, 30.69986 ], [ 76.73933, 30.70038 ], [ 76.73908, 30.7058 ], [ 76.73, 30.70688 ], [ 76.72906, 30.71183 ], [ 76.73134, 30.71263 ], [ 76.72868, 30.71594 ], [ 76.73118, 30.71746 ], [ 76.73107, 30.72361 ], [ 76.72124, 30.73002 ], [ 76.71416, 30.74098 ], [ 76.70744, 30.73951 ], [ 76.70515, 30.74297 ], [ 76.70661, 30.7447 ], [ 76.70587, 30.74745 ], [ 76.70843, 30.75039 ], [ 76.70517, 30.75608 ], [ 76.71166, 30.76166 ], [ 76.72483, 30.76599 ], [ 76.73062, 30.76507 ], [ 76.74394, 30.7697 ], [ 76.74537, 30.77265 ], [ 76.74365, 30.77615 ], [ 76.75221, 30.78027 ], [ 76.75168, 30.78429 ], [ 76.75875, 30.78783 ], [ 76.76169, 30.79152 ], [ 76.77148, 30.79527 ], [ 76.77541, 30.79063 ], [ 76.78275, 30.78923 ], [ 76.787, 30.77958 ], [ 76.77929, 30.778 ], [ 76.78264, 30.77079 ], [ 76.79013, 30.77085 ], [ 76.79133, 30.76752 ], [ 76.7915, 30.76898 ], [ 76.79799, 30.77133 ], [ 76.79751, 30.77244 ], [ 76.80249, 30.7757 ], [ 76.81317, 30.78019 ], [ 76.8185, 30.77796 ], [ 76.81734, 30.77491 ], [ 76.81967, 30.77496 ], [ 76.81912, 30.77294 ], [ 76.80502, 30.76527 ], [ 76.81501, 30.75298 ], [ 76.81779, 30.75466 ], [ 76.82002, 30.76107 ], [ 76.82426, 30.76131 ], [ 76.82648, 30.76352 ], [ 76.83786, 30.75453 ], [ 76.84012, 30.75895 ], [ 76.83895, 30.76595 ], [ 76.84026, 30.77068 ], [ 76.84255, 30.77156 ], [ 76.84176, 30.77451 ], [ 76.85435, 30.78731 ], [ 76.85067, 30.79116 ], [ 76.85265, 30.79355 ], [ 76.85696, 30.7948 ], [ 76.85415, 30.79925 ], [ 76.84685, 30.80373 ], [ 76.8453, 30.80725 ], [ 76.84881, 30.8142 ], [ 76.84813, 30.82874 ], [ 76.84581, 30.83162 ], [ 76.84668, 30.83396 ], [ 76.82979, 30.83913 ], [ 76.82612, 30.84081 ], [ 76.82316, 30.84454 ], [ 76.81397, 30.84304 ], [ 76.81314, 30.84824 ], [ 76.81465, 30.8525 ], [ 76.8047, 30.86064 ], [ 76.80123, 30.86604 ], [ 76.79046, 30.86976 ], [ 76.78433, 30.87791 ], [ 76.77738, 30.89665 ], [ 76.77673, 30.90429 ], [ 76.77605, 30.90583 ], [ 76.77141, 30.90707 ], [ 76.77205, 30.90945 ], [ 76.76687, 30.91658 ], [ 76.76604, 30.92086 ], [ 76.76003, 30.92271 ], [ 76.75954, 30.92608 ], [ 76.75692, 30.92766 ], [ 76.7498, 30.92744 ], [ 76.74686, 30.93205 ], [ 76.73994, 30.9355 ], [ 76.73973, 30.93808 ], [ 76.73717, 30.93988 ], [ 76.73605, 30.94774 ], [ 76.73716, 30.94961 ], [ 76.73373, 30.94932 ], [ 76.72227, 30.9611 ], [ 76.71685, 30.95986 ], [ 76.71137, 30.96494 ], [ 76.70959, 30.96977 ], [ 76.69973, 30.97092 ], [ 76.68361, 30.96791 ], [ 76.67322, 30.96883 ], [ 76.67289, 30.97419 ], [ 76.66834, 30.9768 ], [ 76.66575, 30.98075 ], [ 76.66248, 30.9823 ], [ 76.66123, 30.9809 ], [ 76.65907, 30.98145 ], [ 76.65156, 30.98772 ], [ 76.63802, 30.9903 ], [ 76.6338, 30.99593 ], [ 76.62471, 30.99883 ], [ 76.62681, 31.0109 ], [ 76.62672, 31.0221 ], [ 76.62907, 31.02353 ], [ 76.617, 31.02986 ], [ 76.61599, 31.03657 ], [ 76.61096, 31.04588 ], [ 76.62262, 31.05503 ], [ 76.6218, 31.05681 ], [ 76.62339, 31.05752 ], [ 76.61793, 31.07023 ], [ 76.61803, 31.07823 ], [ 76.62314, 31.07962 ], [ 76.62566, 31.09138 ], [ 76.63217, 31.09788 ], [ 76.63188, 31.10002 ], [ 76.63779, 31.10375 ], [ 76.63859, 31.1081 ], [ 76.63607, 31.11637 ], [ 76.63298, 31.11556 ], [ 76.63073, 31.11688 ], [ 76.62506, 31.11514 ], [ 76.62421, 31.11664 ], [ 76.61697, 31.11618 ], [ 76.61337, 31.12226 ], [ 76.60201, 31.12379 ], [ 76.60164, 31.1286 ], [ 76.60418, 31.13065 ], [ 76.60431, 31.13386 ], [ 76.61063, 31.14062 ], [ 76.60894, 31.14313 ], [ 76.61239, 31.14823 ], [ 76.60993, 31.14945 ], [ 76.60728, 31.14852 ], [ 76.60655, 31.15165 ], [ 76.60179, 31.15316 ], [ 76.60528, 31.1602 ], [ 76.60311, 31.16502 ], [ 76.60904, 31.1733 ], [ 76.60754, 31.17443 ], [ 76.60765, 31.1779 ], [ 76.60173, 31.17576 ], [ 76.59998, 31.17851 ], [ 76.61121, 31.18235 ], [ 76.61775, 31.19291 ], [ 76.64539, 31.20912 ], [ 76.64229, 31.21424 ], [ 76.63454, 31.21786 ], [ 76.63685, 31.21771 ], [ 76.63717, 31.22081 ], [ 76.64177, 31.22274 ], [ 76.63589, 31.22317 ], [ 76.63439, 31.22472 ], [ 76.63176, 31.22382 ], [ 76.62775, 31.22656 ], [ 76.61415, 31.21789 ], [ 76.60624, 31.21675 ], [ 76.60359, 31.21442 ], [ 76.60116, 31.2149 ], [ 76.60087, 31.21257 ], [ 76.59319, 31.21169 ], [ 76.59268, 31.21431 ], [ 76.59132, 31.21422 ], [ 76.59235, 31.21755 ], [ 76.58896, 31.2192 ], [ 76.5886, 31.22285 ], [ 76.59189, 31.22303 ], [ 76.59277, 31.22595 ], [ 76.59523, 31.22676 ], [ 76.59471, 31.23435 ], [ 76.59837, 31.23965 ], [ 76.60978, 31.24358 ], [ 76.61214, 31.24789 ], [ 76.6117, 31.24984 ], [ 76.59258, 31.26507 ], [ 76.59232, 31.26842 ], [ 76.58772, 31.27426 ], [ 76.58348, 31.27621 ], [ 76.57912, 31.27117 ], [ 76.57512, 31.27029 ], [ 76.57127, 31.26622 ], [ 76.57193, 31.26485 ], [ 76.56951, 31.26147 ], [ 76.56574, 31.26221 ], [ 76.55999, 31.25282 ], [ 76.55645, 31.25246 ], [ 76.55281, 31.25518 ], [ 76.54918, 31.25282 ], [ 76.54424, 31.25622 ], [ 76.54358, 31.25896 ], [ 76.55017, 31.26993 ], [ 76.5488, 31.27433 ], [ 76.55127, 31.27881 ], [ 76.54289, 31.28249 ], [ 76.54106, 31.27502 ], [ 76.5377, 31.27061 ], [ 76.53995, 31.26632 ], [ 76.53931, 31.26111 ], [ 76.53139, 31.25645 ], [ 76.52377, 31.2582 ], [ 76.5239, 31.26234 ], [ 76.52887, 31.26571 ], [ 76.53052, 31.27111 ], [ 76.52896, 31.27089 ], [ 76.5274, 31.27723 ], [ 76.5213, 31.28026 ], [ 76.50387, 31.26694 ], [ 76.50114, 31.26997 ], [ 76.49732, 31.27054 ], [ 76.49519, 31.28162 ], [ 76.49724, 31.28599 ], [ 76.49532, 31.28869 ], [ 76.49158, 31.28848 ], [ 76.49207, 31.29387 ], [ 76.48888, 31.29622 ], [ 76.48614, 31.30398 ], [ 76.47953, 31.30825 ], [ 76.47477, 31.30196 ], [ 76.46339, 31.29347 ], [ 76.45928, 31.28574 ], [ 76.44275, 31.27722 ], [ 76.43967, 31.27904 ], [ 76.44096, 31.28763 ], [ 76.45854, 31.29535 ], [ 76.46274, 31.29821 ], [ 76.4638, 31.30146 ], [ 76.45461, 31.31177 ], [ 76.44644, 31.31714 ], [ 76.44023, 31.31918 ], [ 76.4358, 31.32612 ], [ 76.43173, 31.32687 ], [ 76.42512, 31.33962 ], [ 76.42659, 31.34446 ], [ 76.424, 31.34905 ], [ 76.41849, 31.35008 ], [ 76.40786, 31.36593 ], [ 76.40418, 31.37787 ], [ 76.40107, 31.37851 ], [ 76.39265, 31.38955 ], [ 76.39294, 31.39104 ], [ 76.39441, 31.39046 ], [ 76.39836, 31.3934 ], [ 76.40378, 31.39227 ], [ 76.4033, 31.39689 ], [ 76.39977, 31.39951 ], [ 76.39685, 31.40739 ], [ 76.38799, 31.40913 ], [ 76.38994, 31.41659 ], [ 76.38314, 31.42312 ], [ 76.38321, 31.4256 ], [ 76.37922, 31.42844 ], [ 76.38059, 31.43104 ], [ 76.37396, 31.43723 ], [ 76.37338, 31.43333 ], [ 76.37111, 31.43247 ], [ 76.37025, 31.42876 ], [ 76.3728, 31.42487 ], [ 76.37061, 31.41541 ], [ 76.37249, 31.41279 ], [ 76.37229, 31.40903 ], [ 76.36779, 31.40395 ], [ 76.3593, 31.40322 ], [ 76.35674, 31.40044 ], [ 76.34848, 31.39779 ], [ 76.34703, 31.39832 ], [ 76.34655, 31.4024 ], [ 76.34338, 31.40237 ], [ 76.34277, 31.39827 ], [ 76.34223, 31.40091 ], [ 76.33108, 31.40125 ], [ 76.33181, 31.38392 ], [ 76.3296, 31.37859 ], [ 76.34171, 31.37815 ], [ 76.34077, 31.36352 ], [ 76.34265, 31.36329 ], [ 76.34241, 31.35478 ], [ 76.34609, 31.35445 ], [ 76.34705, 31.34915 ], [ 76.35304, 31.3489 ], [ 76.35444, 31.34496 ], [ 76.35189, 31.34505 ], [ 76.35137, 31.34712 ], [ 76.34719, 31.34685 ], [ 76.34681, 31.34341 ], [ 76.34517, 31.34327 ], [ 76.34394, 31.34057 ], [ 76.33771, 31.34026 ], [ 76.33557, 31.3492 ], [ 76.33407, 31.34941 ], [ 76.33024, 31.34838 ], [ 76.33136, 31.3466 ], [ 76.30756, 31.34265 ], [ 76.31298, 31.33005 ], [ 76.32259, 31.32166 ], [ 76.31121, 31.3195 ], [ 76.30444, 31.31391 ], [ 76.29302, 31.31037 ], [ 76.28949, 31.30682 ], [ 76.28668, 31.3076 ], [ 76.27573, 31.30064 ], [ 76.27073, 31.30297 ], [ 76.26894, 31.31313 ], [ 76.26747, 31.31068 ], [ 76.25678, 31.31068 ], [ 76.25006, 31.3079 ], [ 76.23949, 31.30852 ], [ 76.21394, 31.29945 ], [ 76.19096, 31.30005 ], [ 76.18627, 31.30215 ], [ 76.18429, 31.30571 ], [ 76.17979, 31.30659 ], [ 76.18134, 31.33371 ], [ 76.17879, 31.34053 ], [ 76.159, 31.34367 ], [ 76.15334, 31.34938 ], [ 76.15209, 31.35278 ], [ 76.14932, 31.35332 ], [ 76.14881, 31.35797 ], [ 76.14685, 31.35904 ], [ 76.14859, 31.36101 ], [ 76.14727, 31.36457 ], [ 76.14773, 31.37962 ], [ 76.16091, 31.38845 ], [ 76.16854, 31.39631 ], [ 76.16976, 31.39901 ], [ 76.16635, 31.40579 ], [ 76.16861, 31.40971 ], [ 76.16621, 31.41253 ], [ 76.16013, 31.41476 ], [ 76.16254, 31.42127 ], [ 76.15669, 31.43054 ], [ 76.15254, 31.43352 ], [ 76.14573, 31.43394 ], [ 76.14062, 31.44181 ], [ 76.13895, 31.44875 ], [ 76.1331, 31.45195 ], [ 76.13545, 31.45891 ], [ 76.13464, 31.46147 ], [ 76.13101, 31.46359 ], [ 76.13066, 31.47109 ], [ 76.12873, 31.47164 ], [ 76.12828, 31.4741 ], [ 76.12162, 31.47738 ], [ 76.12081, 31.47998 ], [ 76.11702, 31.48307 ], [ 76.12043, 31.48792 ], [ 76.11946, 31.49365 ], [ 76.12081, 31.4976 ], [ 76.11307, 31.49994 ], [ 76.10965, 31.50696 ], [ 76.10653, 31.50987 ], [ 76.10147, 31.52281 ], [ 76.10202, 31.52567 ], [ 76.09781, 31.53307 ], [ 76.09849, 31.53646 ], [ 76.09195, 31.54168 ], [ 76.08859, 31.54764 ], [ 76.08484, 31.5485 ], [ 76.08151, 31.55206 ], [ 76.07703, 31.56053 ], [ 76.07308, 31.56345 ], [ 76.07201, 31.56964 ], [ 76.06605, 31.57347 ], [ 76.06437, 31.57918 ], [ 76.05925, 31.58121 ], [ 76.05596, 31.58551 ], [ 76.05749, 31.58864 ], [ 76.05332, 31.59344 ], [ 76.05663, 31.59397 ], [ 76.05796, 31.59633 ], [ 76.05515, 31.60565 ], [ 76.0491, 31.60267 ], [ 76.04609, 31.60335 ], [ 76.04066, 31.61053 ], [ 76.03699, 31.60995 ], [ 76.03552, 31.6136 ], [ 76.0284, 31.61939 ], [ 76.02762, 31.62326 ], [ 76.02308, 31.62533 ], [ 76.0177, 31.63218 ], [ 76.02101, 31.64063 ], [ 76.01712, 31.64535 ], [ 76.01841, 31.64892 ], [ 76.00891, 31.65337 ], [ 76.00594, 31.66192 ], [ 76.00475, 31.6751 ], [ 76.00154, 31.68029 ], [ 76.00008, 31.6876 ], [ 75.99308, 31.69691 ], [ 75.99162, 31.70148 ], [ 75.99293, 31.70346 ], [ 75.98892, 31.70773 ], [ 75.98869, 31.71276 ], [ 75.98303, 31.71888 ], [ 75.98319, 31.72153 ], [ 75.97944, 31.72608 ], [ 75.97839, 31.73372 ], [ 75.97442, 31.73494 ], [ 75.97262, 31.73862 ], [ 75.97245, 31.74151 ], [ 75.97539, 31.74257 ], [ 75.97512, 31.74379 ], [ 75.97109, 31.74924 ], [ 75.97232, 31.75125 ], [ 75.9707, 31.75679 ], [ 75.9662, 31.76657 ], [ 75.96337, 31.76882 ], [ 75.96319, 31.77391 ], [ 75.96018, 31.78116 ], [ 75.95308, 31.78332 ], [ 75.95304, 31.78963 ], [ 75.93665, 31.81545 ], [ 75.94178, 31.81273 ], [ 75.94746, 31.81305 ], [ 75.95695, 31.81633 ], [ 75.95806, 31.81845 ], [ 75.96733, 31.82384 ], [ 75.96937, 31.82387 ], [ 75.97323, 31.81847 ], [ 75.97557, 31.81879 ], [ 75.97853, 31.81304 ], [ 75.98191, 31.81403 ], [ 75.98346, 31.81164 ], [ 75.9865, 31.81227 ], [ 75.98646, 31.81798 ], [ 75.97482, 31.8284 ], [ 75.97119, 31.82852 ], [ 75.97087, 31.83348 ], [ 75.96593, 31.83832 ], [ 75.96116, 31.85489 ], [ 75.94508, 31.88366 ], [ 75.93871, 31.8911 ], [ 75.93661, 31.89888 ], [ 75.91552, 31.93107 ], [ 75.91153, 31.93989 ], [ 75.91037, 31.95018 ], [ 75.90367, 31.95278 ], [ 75.89246, 31.96184 ], [ 75.88263, 31.96589 ], [ 75.88298, 31.96895 ], [ 75.87422, 31.96952 ], [ 75.85694, 31.97386 ], [ 75.851, 31.98221 ], [ 75.82167, 31.98398 ], [ 75.79961, 31.99381 ], [ 75.77973, 32.00471 ], [ 75.76492, 32.01998 ], [ 75.75078, 32.03775 ], [ 75.74243, 32.03944 ], [ 75.72342, 32.03303 ], [ 75.7107, 32.04146 ], [ 75.70784, 32.04504 ], [ 75.70797, 32.04951 ], [ 75.69831, 32.05805 ], [ 75.69099, 32.06126 ], [ 75.67826, 32.06336 ], [ 75.67407, 32.06716 ], [ 75.67462, 32.07056 ], [ 75.66319, 32.07406 ], [ 75.66287, 32.07579 ], [ 75.65817, 32.07771 ], [ 75.65427, 32.07765 ], [ 75.64719, 32.07301 ], [ 75.63657, 32.07139 ], [ 75.63134, 32.07447 ], [ 75.6204, 32.07259 ], [ 75.6017, 32.06584 ], [ 75.6007, 32.0691 ], [ 75.59482, 32.06987 ], [ 75.59596, 32.07527 ], [ 75.59424, 32.07895 ], [ 75.59817, 32.0823 ], [ 75.59641, 32.08614 ], [ 75.60084, 32.09308 ], [ 75.61087, 32.09316 ], [ 75.62035, 32.09787 ], [ 75.62651, 32.10627 ], [ 75.62771, 32.1169 ], [ 75.62548, 32.11823 ], [ 75.62893, 32.12118 ], [ 75.65295, 32.13118 ], [ 75.66127, 32.13687 ], [ 75.67306, 32.15877 ], [ 75.66388, 32.16238 ], [ 75.6644, 32.16461 ], [ 75.6665, 32.16556 ], [ 75.6672, 32.1776 ], [ 75.65888, 32.1774 ], [ 75.65903, 32.18262 ], [ 75.65677, 32.1829 ], [ 75.65974, 32.18351 ], [ 75.65973, 32.18719 ], [ 75.66315, 32.18973 ], [ 75.6619, 32.19304 ], [ 75.65784, 32.19397 ], [ 75.65501, 32.1973 ], [ 75.64519, 32.19286 ], [ 75.63744, 32.19265 ], [ 75.63713, 32.18716 ], [ 75.63281, 32.18656 ], [ 75.63124, 32.18932 ], [ 75.62421, 32.19032 ], [ 75.62718, 32.20401 ], [ 75.6272, 32.20735 ], [ 75.62514, 32.20935 ], [ 75.62649, 32.21551 ], [ 75.63181, 32.21587 ], [ 75.63729, 32.21857 ], [ 75.63877, 32.2219 ], [ 75.63662, 32.23144 ], [ 75.62646, 32.23233 ], [ 75.61897, 32.23492 ], [ 75.61786, 32.23671 ], [ 75.63295, 32.24492 ], [ 75.63849, 32.25202 ], [ 75.65507, 32.25102 ], [ 75.66534, 32.25344 ], [ 75.71332, 32.27263 ], [ 75.7448, 32.27691 ], [ 75.77055, 32.28869 ], [ 75.77298, 32.29027 ], [ 75.7815, 32.30909 ], [ 75.78937, 32.3152 ], [ 75.7978, 32.32463 ], [ 75.80318, 32.32852 ], [ 75.81521, 32.33038 ], [ 75.81347, 32.33584 ], [ 75.8079, 32.34111 ], [ 75.81121, 32.34855 ], [ 75.82701, 32.35053 ], [ 75.83472, 32.35704 ], [ 75.84415, 32.35584 ], [ 75.84778, 32.36913 ], [ 75.84737, 32.37385 ], [ 75.85653, 32.38476 ], [ 75.8641, 32.38836 ], [ 75.87348, 32.39554 ], [ 75.88717, 32.3961 ], [ 75.89377, 32.39326 ], [ 75.9052, 32.39518 ], [ 75.9114, 32.39416 ], [ 75.91609, 32.39704 ], [ 75.91867, 32.39542 ], [ 75.92169, 32.39653 ], [ 75.92332, 32.39125 ], [ 75.92906, 32.39442 ], [ 75.93284, 32.39148 ], [ 75.93474, 32.39338 ], [ 75.93647, 32.39742 ], [ 75.9322, 32.39903 ], [ 75.91799, 32.41443 ], [ 75.92059, 32.42913 ], [ 75.90789, 32.43648 ], [ 75.90385, 32.4442 ], [ 75.90175, 32.45275 ], [ 75.89092, 32.45725 ], [ 75.87663, 32.47241 ], [ 75.87483, 32.47104 ], [ 75.86776, 32.47853 ], [ 75.85757, 32.48391 ], [ 75.8472, 32.49707 ], [ 75.84904, 32.4982 ], [ 75.84378, 32.50913 ], [ 75.83873, 32.5127 ], [ 75.83177, 32.5106 ], [ 75.83324, 32.50429 ], [ 75.826, 32.50389 ], [ 75.8245, 32.50181 ], [ 75.82605, 32.49952 ], [ 75.82055, 32.4923 ], [ 75.81289, 32.48827 ], [ 75.80089, 32.48537 ], [ 75.77679, 32.46502 ], [ 75.76271, 32.45978 ], [ 75.7589, 32.46047 ], [ 75.75252, 32.45531 ], [ 75.74048, 32.45502 ], [ 75.72852, 32.45269 ], [ 75.72874, 32.44742 ], [ 75.72726, 32.44575 ], [ 75.72959, 32.43895 ], [ 75.73508, 32.43898 ], [ 75.74374, 32.43204 ], [ 75.74249, 32.4304 ], [ 75.73735, 32.42965 ], [ 75.73057, 32.43289 ], [ 75.72843, 32.43251 ], [ 75.72762, 32.42893 ], [ 75.73175, 32.42514 ], [ 75.73191, 32.42294 ], [ 75.72353, 32.41019 ], [ 75.72249, 32.40546 ], [ 75.71484, 32.40748 ], [ 75.71138, 32.41104 ], [ 75.70118, 32.39958 ], [ 75.68699, 32.39051 ], [ 75.67902, 32.38972 ], [ 75.67405, 32.39362 ], [ 75.64767, 32.38745 ], [ 75.63108, 32.37949 ], [ 75.60954, 32.37679 ], [ 75.59667, 32.37768 ], [ 75.55978, 32.35713 ], [ 75.53948, 32.33623 ], [ 75.53709, 32.326 ], [ 75.54218, 32.32188 ], [ 75.54286, 32.30786 ], [ 75.5394, 32.30013 ], [ 75.53646, 32.28265 ], [ 75.53343, 32.27765 ], [ 75.52887, 32.27843 ], [ 75.52543, 32.27746 ], [ 75.52561, 32.27622 ], [ 75.52093, 32.27701 ], [ 75.52095, 32.27899 ], [ 75.51865, 32.27958 ], [ 75.51816, 32.28128 ], [ 75.50931, 32.28375 ], [ 75.50341, 32.29166 ], [ 75.5121, 32.30794 ], [ 75.50487, 32.31273 ], [ 75.50265, 32.31127 ], [ 75.49034, 32.317 ], [ 75.48627, 32.31712 ], [ 75.4821, 32.32044 ], [ 75.48577, 32.3242 ], [ 75.48016, 32.33433 ], [ 75.48502, 32.33796 ], [ 75.48651, 32.33733 ], [ 75.48748, 32.33987 ], [ 75.49464, 32.34104 ], [ 75.48914, 32.34599 ], [ 75.4844, 32.34165 ], [ 75.47852, 32.33897 ], [ 75.47508, 32.33885 ], [ 75.47518, 32.34032 ], [ 75.46856, 32.33897 ], [ 75.47159, 32.33376 ], [ 75.46602, 32.32995 ], [ 75.46885, 32.32839 ], [ 75.46753, 32.32556 ], [ 75.45889, 32.32743 ], [ 75.45034, 32.32465 ], [ 75.4483, 32.32647 ], [ 75.44104, 32.31843 ], [ 75.4317, 32.31732 ], [ 75.43102, 32.31594 ], [ 75.41901, 32.32005 ], [ 75.41076, 32.32894 ], [ 75.40387, 32.32774 ], [ 75.40209, 32.33055 ], [ 75.39947, 32.33066 ], [ 75.39385, 32.32756 ], [ 75.37988, 32.33505 ], [ 75.37631, 32.33524 ], [ 75.37517, 32.33784 ], [ 75.37161, 32.33449 ], [ 75.36334, 32.33347 ], [ 75.36167, 32.33433 ], [ 75.36263, 32.33615 ], [ 75.35554, 32.33705 ], [ 75.34928, 32.34502 ], [ 75.34141, 32.34609 ], [ 75.33831, 32.3412 ], [ 75.34134, 32.33811 ], [ 75.33925, 32.33595 ], [ 75.33657, 32.33732 ], [ 75.33523, 32.33522 ], [ 75.33569, 32.33004 ], [ 75.33166, 32.32693 ], [ 75.33728, 32.32196 ], [ 75.33595, 32.3166 ], [ 75.33222, 32.31604 ], [ 75.33023, 32.31358 ], [ 75.33466, 32.31135 ], [ 75.32388, 32.30252 ], [ 75.32101, 32.29736 ], [ 75.35022, 32.29006 ], [ 75.34381, 32.27898 ], [ 75.37178, 32.27973 ], [ 75.38147, 32.26897 ], [ 75.38004, 32.26646 ], [ 75.374, 32.26586 ], [ 75.37045, 32.25818 ], [ 75.3703, 32.24236 ], [ 75.37424, 32.24138 ], [ 75.3725, 32.22604 ], [ 75.37169, 32.22469 ], [ 75.36861, 32.22634 ], [ 75.36583, 32.22388 ], [ 75.36554, 32.2199 ], [ 75.3577, 32.2182 ], [ 75.34215, 32.2171 ], [ 75.33674, 32.21961 ], [ 75.33135, 32.21967 ], [ 75.32406, 32.21109 ], [ 75.31627, 32.20817 ], [ 75.32016, 32.20426 ], [ 75.31197, 32.19955 ], [ 75.31025, 32.19478 ], [ 75.31359, 32.18958 ], [ 75.3184, 32.18767 ], [ 75.31624, 32.18104 ], [ 75.32237, 32.17973 ], [ 75.31393, 32.17223 ], [ 75.30673, 32.16919 ], [ 75.29965, 32.15674 ], [ 75.2994, 32.15354 ], [ 75.28786, 32.15314 ], [ 75.28538, 32.1518 ], [ 75.27732, 32.1371 ], [ 75.28336, 32.13203 ], [ 75.27931, 32.11815 ], [ 75.27224, 32.11316 ], [ 75.26272, 32.11223 ], [ 75.26158, 32.11081 ], [ 75.26613, 32.1092 ], [ 75.26632, 32.10749 ], [ 75.26115, 32.10163 ], [ 75.24777, 32.10091 ], [ 75.24511, 32.09991 ], [ 75.24021, 32.09109 ], [ 75.23134, 32.09158 ], [ 75.2293, 32.09333 ], [ 75.23542, 32.10353 ], [ 75.22692, 32.10675 ], [ 75.22618, 32.10343 ], [ 75.22315, 32.10244 ], [ 75.22367, 32.09821 ], [ 75.21771, 32.10339 ], [ 75.22027, 32.10771 ], [ 75.21561, 32.12121 ], [ 75.20256, 32.12015 ], [ 75.20573, 32.10262 ], [ 75.20406, 32.09669 ], [ 75.19788, 32.09863 ], [ 75.19656, 32.08558 ], [ 75.19827, 32.08284 ], [ 75.18902, 32.08235 ], [ 75.17918, 32.07641 ], [ 75.17415, 32.06771 ], [ 75.16604, 32.07165 ], [ 75.15758, 32.08186 ], [ 75.14238, 32.08024 ], [ 75.12279, 32.0815 ], [ 75.12021, 32.07864 ], [ 75.12075, 32.07547 ], [ 75.11737, 32.07551 ], [ 75.11304, 32.07191 ], [ 75.1084, 32.07169 ], [ 75.10661, 32.06972 ], [ 75.10892, 32.06483 ], [ 75.10482, 32.05867 ], [ 75.10178, 32.05935 ], [ 75.09775, 32.06633 ], [ 75.09104, 32.07186 ], [ 75.09006, 32.06886 ], [ 75.0915, 32.06588 ], [ 75.0839, 32.06009 ], [ 75.07293, 32.05979 ], [ 75.06884, 32.06362 ], [ 75.07142, 32.06559 ], [ 75.0686, 32.06721 ], [ 75.06406, 32.06562 ], [ 75.068, 32.06245 ], [ 75.06195, 32.05534 ], [ 75.05861, 32.05282 ], [ 75.05366, 32.05437 ], [ 75.05056, 32.0527 ], [ 75.05172, 32.05118 ], [ 75.04064, 32.04264 ], [ 75.03681, 32.04438 ], [ 75.03389, 32.0507 ], [ 75.02377, 32.0476 ], [ 75.0215, 32.04864 ], [ 75.01875, 32.04701 ], [ 75.01775, 32.04194 ], [ 75.0166, 32.04296 ], [ 75.01228, 32.03574 ], [ 75.0048, 32.03756 ], [ 75.00286, 32.0436 ], [ 75.00114, 32.04116 ], [ 74.9852, 32.04241 ], [ 74.98282, 32.0402 ], [ 74.97169, 32.04257 ], [ 74.97794, 32.04721 ], [ 74.97386, 32.05349 ], [ 74.95282, 32.0602 ], [ 74.952, 32.05816 ], [ 74.94823, 32.05933 ], [ 74.94949, 32.06234 ], [ 74.94801, 32.06317 ], [ 74.93393, 32.06559 ], [ 74.92468, 32.06633 ], [ 74.91878, 32.06246 ], [ 74.91763, 32.05801 ], [ 74.91218, 32.05601 ], [ 74.91265, 32.05386 ], [ 74.90465, 32.05033 ], [ 74.89133, 32.0551 ], [ 74.88968, 32.05522 ], [ 74.88846, 32.05267 ], [ 74.87935, 32.05384 ], [ 74.87529, 32.05082 ], [ 74.87252, 32.04401 ], [ 74.86875, 32.04186 ], [ 74.87235, 32.04158 ], [ 74.87633, 32.03413 ], [ 74.87995, 32.03188 ], [ 74.8688, 32.02202 ], [ 74.86918, 32.02783 ], [ 74.86539, 32.03044 ], [ 74.86261, 32.02957 ], [ 74.8638, 32.02438 ], [ 74.86553, 32.02325 ], [ 74.84833, 32.02045 ], [ 74.85315, 32.01347 ], [ 74.84675, 32.00838 ], [ 74.83891, 32.00849 ], [ 74.82885, 31.99919 ], [ 74.83119, 31.98085 ], [ 74.81894, 31.95866 ], [ 74.81506, 31.96051 ], [ 74.81092, 31.95942 ], [ 74.81063, 31.96238 ], [ 74.80588, 31.96303 ], [ 74.80217, 31.95788 ], [ 74.79457, 31.9583 ], [ 74.78158, 31.95579 ], [ 74.76848, 31.94765 ], [ 74.75977, 31.95429 ], [ 74.75534, 31.95583 ], [ 74.75614, 31.94382 ], [ 74.74299, 31.93972 ], [ 74.7343, 31.94536 ], [ 74.73093, 31.94101 ], [ 74.72722, 31.94283 ], [ 74.71965, 31.94146 ], [ 74.72029, 31.94042 ], [ 74.71519, 31.93625 ], [ 74.71389, 31.93216 ], [ 74.71898, 31.92383 ], [ 74.70764, 31.92311 ], [ 74.70651, 31.92116 ], [ 74.70082, 31.9238 ], [ 74.70073, 31.92591 ], [ 74.69734, 31.92655 ], [ 74.67707, 31.92625 ], [ 74.67418, 31.91863 ], [ 74.67342, 31.92086 ], [ 74.66663, 31.9226 ], [ 74.66835, 31.91799 ], [ 74.66338, 31.91322 ], [ 74.66265, 31.91437 ], [ 74.66016, 31.9135 ], [ 74.65837, 31.91028 ], [ 74.65771, 31.90182 ], [ 74.65451, 31.89955 ], [ 74.65104, 31.90225 ], [ 74.6366, 31.88403 ], [ 74.6333, 31.88415 ], [ 74.62966, 31.88196 ], [ 74.61589, 31.88936 ], [ 74.60777, 31.88996 ], [ 74.60733, 31.88201 ], [ 74.6081, 31.87855 ], [ 74.60996, 31.87831 ], [ 74.60656, 31.86852 ], [ 74.59785, 31.86805 ], [ 74.59221, 31.85804 ], [ 74.59063, 31.84864 ], [ 74.58339, 31.85191 ], [ 74.57597, 31.84394 ], [ 74.57308, 31.83856 ], [ 74.57209, 31.83904 ], [ 74.57061, 31.83701 ], [ 74.57037, 31.82825 ], [ 74.57114, 31.81904 ], [ 74.57309, 31.81606 ], [ 74.56496, 31.80809 ], [ 74.56328, 31.80872 ], [ 74.55782, 31.80478 ], [ 74.56714, 31.79638 ], [ 74.55555, 31.79137 ], [ 74.55511, 31.78616 ], [ 74.55129, 31.77905 ], [ 74.55677, 31.77041 ], [ 74.55484, 31.76685 ], [ 74.56166, 31.76313 ], [ 74.55937, 31.75788 ], [ 74.54711, 31.75211 ], [ 74.54725, 31.74936 ], [ 74.53205, 31.74818 ], [ 74.51387, 31.73998 ], [ 74.50888, 31.74211 ], [ 74.50385, 31.74029 ], [ 74.50512, 31.73978 ], [ 74.50292, 31.72844 ], [ 74.49079, 31.72374 ], [ 74.4882, 31.72037 ], [ 74.48655, 31.71506 ], [ 74.4992, 31.70939 ], [ 74.49923, 31.70728 ], [ 74.50334, 31.70257 ], [ 74.50193, 31.69564 ], [ 74.51677, 31.68871 ], [ 74.52425, 31.68698 ], [ 74.53502, 31.6776 ], [ 74.53448, 31.67361 ], [ 74.52962, 31.66944 ], [ 74.52877, 31.66641 ], [ 74.54024, 31.65994 ], [ 74.53742, 31.65322 ], [ 74.53907, 31.6482 ], [ 74.54112, 31.64664 ], [ 74.54478, 31.64835 ], [ 74.54657, 31.64551 ], [ 74.54797, 31.64087 ], [ 74.54617, 31.63324 ], [ 74.55156, 31.62398 ], [ 74.55114, 31.61775 ], [ 74.5564, 31.61139 ], [ 74.55542, 31.60792 ], [ 74.56713, 31.60706 ], [ 74.57536, 31.60394 ], [ 74.57566, 31.60079 ], [ 74.57887, 31.59969 ], [ 74.57479, 31.59779 ], [ 74.57711, 31.59517 ], [ 74.58087, 31.59425 ], [ 74.58228, 31.58793 ], [ 74.58087, 31.58726 ], [ 74.58579, 31.58512 ], [ 74.58695, 31.58343 ], [ 74.58526, 31.58138 ], [ 74.59181, 31.57653 ], [ 74.59205, 31.5741 ], [ 74.60163, 31.57271 ], [ 74.61085, 31.56705 ], [ 74.61582, 31.56904 ], [ 74.61342, 31.56692 ], [ 74.60892, 31.56671 ], [ 74.60665, 31.5624 ], [ 74.61121, 31.56014 ], [ 74.61085, 31.55891 ], [ 74.61604, 31.5575 ], [ 74.61869, 31.55156 ], [ 74.61435, 31.5511 ], [ 74.61278, 31.52725 ], [ 74.60375, 31.52397 ], [ 74.59594, 31.52598 ], [ 74.58893, 31.52142 ], [ 74.58412, 31.52078 ], [ 74.58264, 31.51359 ], [ 74.58017, 31.5111 ], [ 74.58363, 31.51035 ], [ 74.58403, 31.50675 ], [ 74.58196, 31.50801 ], [ 74.58006, 31.50699 ], [ 74.58721, 31.5042 ], [ 74.58459, 31.50019 ], [ 74.58152, 31.50068 ], [ 74.5812, 31.49888 ], [ 74.57987, 31.50049 ], [ 74.57528, 31.5009 ], [ 74.57805, 31.49835 ], [ 74.58735, 31.49609 ], [ 74.58831, 31.49719 ], [ 74.59355, 31.49612 ], [ 74.59475, 31.50154 ], [ 74.59946, 31.49973 ], [ 74.60304, 31.50047 ], [ 74.60544, 31.49844 ], [ 74.60973, 31.4998 ], [ 74.61293, 31.4961 ], [ 74.61462, 31.48888 ], [ 74.61864, 31.48509 ], [ 74.62232, 31.48524 ], [ 74.6222, 31.48203 ], [ 74.62355, 31.48338 ], [ 74.62583, 31.4827 ], [ 74.62496, 31.4859 ], [ 74.63196, 31.48653 ], [ 74.6366, 31.48479 ], [ 74.6315, 31.48129 ], [ 74.62953, 31.48416 ], [ 74.62769, 31.47691 ], [ 74.63627, 31.47773 ], [ 74.63855, 31.47259 ], [ 74.64772, 31.46553 ], [ 74.65215, 31.45724 ], [ 74.65317, 31.45447 ], [ 74.65125, 31.45195 ], [ 74.6431, 31.45015 ], [ 74.63977, 31.44751 ], [ 74.63855, 31.44421 ], [ 74.64285, 31.43666 ], [ 74.65459, 31.42592 ], [ 74.65186, 31.42647 ], [ 74.64822, 31.42378 ], [ 74.64347, 31.41615 ], [ 74.63363, 31.41875 ], [ 74.6313, 31.42563 ], [ 74.6288, 31.42616 ], [ 74.62747, 31.42941 ], [ 74.62231, 31.43019 ], [ 74.61926, 31.4199 ], [ 74.60888, 31.42367 ], [ 74.60708, 31.42053 ], [ 74.60114, 31.41996 ], [ 74.60255, 31.41571 ], [ 74.59645, 31.41632 ], [ 74.59401, 31.40781 ], [ 74.58697, 31.39769 ], [ 74.58609, 31.3855 ], [ 74.58341, 31.37907 ], [ 74.57773, 31.37599 ], [ 74.5784, 31.37497 ], [ 74.57219, 31.37352 ], [ 74.57157, 31.37149 ], [ 74.56756, 31.37199 ], [ 74.55165, 31.36442 ], [ 74.55008, 31.3586 ], [ 74.55308, 31.35643 ], [ 74.54799, 31.34305 ], [ 74.54579, 31.34079 ], [ 74.54869, 31.33488 ], [ 74.54379, 31.33526 ], [ 74.53674, 31.33024 ], [ 74.53736, 31.32678 ], [ 74.53367, 31.32502 ], [ 74.53424, 31.32205 ], [ 74.53788, 31.3192 ], [ 74.53384, 31.31603 ], [ 74.53532, 31.31508 ], [ 74.53478, 31.31348 ], [ 74.52898, 31.31417 ], [ 74.52632, 31.31246 ], [ 74.52848, 31.30889 ], [ 74.53223, 31.3077 ], [ 74.53419, 31.30496 ], [ 74.54077, 31.30608 ], [ 74.54201, 31.30376 ], [ 74.53749, 31.30105 ], [ 74.53108, 31.28437 ], [ 74.52639, 31.27684 ], [ 74.52103, 31.27212 ], [ 74.52051, 31.26894 ], [ 74.52372, 31.2617 ], [ 74.53198, 31.25234 ], [ 74.53267, 31.24973 ], [ 74.52811, 31.23999 ], [ 74.51887, 31.23339 ], [ 74.51974, 31.2319 ], [ 74.5171, 31.22845 ], [ 74.51714, 31.22683 ], [ 74.52076, 31.22512 ], [ 74.52457, 31.22025 ], [ 74.52354, 31.21797 ], [ 74.526, 31.2119 ], [ 74.52365, 31.20813 ], [ 74.52538, 31.20617 ], [ 74.52507, 31.20364 ], [ 74.52141, 31.20273 ], [ 74.52153, 31.1971 ], [ 74.51989, 31.19433 ], [ 74.52145, 31.19077 ], [ 74.5195, 31.18421 ], [ 74.5106, 31.1811 ], [ 74.50989, 31.17336 ], [ 74.51296, 31.16421 ], [ 74.5107, 31.15787 ], [ 74.51374, 31.15588 ], [ 74.51282, 31.15362 ], [ 74.51519, 31.15116 ], [ 74.51358, 31.14854 ], [ 74.51356, 31.13923 ], [ 74.51028, 31.13201 ], [ 74.52482, 31.1293 ], [ 74.54377, 31.12101 ], [ 74.54538, 31.12249 ], [ 74.5484, 31.12209 ], [ 74.54764, 31.11467 ], [ 74.54961, 31.11313 ], [ 74.55054, 31.08835 ], [ 74.55207, 31.086 ], [ 74.56049, 31.08266 ], [ 74.57127, 31.08135 ], [ 74.57373, 31.08584 ], [ 74.58872, 31.08762 ], [ 74.58647, 31.09115 ], [ 74.58906, 31.09247 ], [ 74.59077, 31.09251 ], [ 74.59125, 31.08862 ], [ 74.60072, 31.08799 ], [ 74.59929, 31.09305 ], [ 74.60415, 31.09312 ], [ 74.60398, 31.09506 ], [ 74.60722, 31.09487 ], [ 74.60957, 31.09761 ], [ 74.60989, 31.11172 ], [ 74.60544, 31.11445 ], [ 74.5965, 31.12732 ], [ 74.59701, 31.12938 ], [ 74.5989, 31.1289 ], [ 74.60323, 31.13373 ], [ 74.60453, 31.13272 ], [ 74.60962, 31.13383 ], [ 74.61852, 31.13139 ], [ 74.62194, 31.13308 ], [ 74.62664, 31.13115 ], [ 74.63084, 31.13274 ], [ 74.63245, 31.13137 ], [ 74.63091, 31.12805 ], [ 74.6323, 31.12156 ], [ 74.63636, 31.11819 ], [ 74.64032, 31.11973 ], [ 74.64758, 31.12747 ], [ 74.65911, 31.13408 ], [ 74.66643, 31.12445 ], [ 74.67318, 31.12358 ], [ 74.68289, 31.12733 ], [ 74.68909, 31.12802 ], [ 74.68977, 31.11831 ], [ 74.69812, 31.11247 ], [ 74.69721, 31.10258 ], [ 74.70128, 31.09714 ], [ 74.70237, 31.09169 ], [ 74.69726, 31.08468 ], [ 74.69069, 31.08145 ], [ 74.69565, 31.07426 ], [ 74.6711, 31.05358 ], [ 74.66651, 31.05208 ], [ 74.65222, 31.0492 ], [ 74.64585, 31.04977 ], [ 74.62036, 31.04431 ], [ 74.61307, 31.04476 ], [ 74.59689, 31.03764 ], [ 74.59623, 31.04214 ], [ 74.59032, 31.04997 ], [ 74.57437, 31.05684 ], [ 74.57043, 31.05288 ], [ 74.56816, 31.05481 ], [ 74.56144, 31.04872 ], [ 74.55879, 31.03738 ], [ 74.55774, 31.03826 ], [ 74.54796, 31.03249 ], [ 74.54246, 31.01724 ], [ 74.53964, 31.00876 ], [ 74.54401, 30.99796 ], [ 74.54305, 30.99655 ], [ 74.54638, 30.99243 ], [ 74.51615, 30.97945 ], [ 74.5087, 30.96728 ], [ 74.50413, 30.96489 ], [ 74.49799, 30.96436 ], [ 74.49187, 30.97443 ], [ 74.48966, 30.97246 ], [ 74.48138, 30.97068 ], [ 74.4798, 30.97423 ], [ 74.45693, 30.96423 ], [ 74.46636, 30.95676 ], [ 74.45156, 30.95578 ], [ 74.45515, 30.95133 ], [ 74.44198, 30.95173 ], [ 74.44186, 30.94549 ], [ 74.43947, 30.94207 ], [ 74.4288, 30.94243 ], [ 74.41639, 30.94032 ], [ 74.41783, 30.93786 ], [ 74.41374, 30.92962 ], [ 74.42876, 30.93112 ], [ 74.42354, 30.92077 ], [ 74.41031, 30.92346 ], [ 74.41109, 30.91956 ], [ 74.41866, 30.91919 ], [ 74.42443, 30.91584 ], [ 74.42277, 30.90777 ], [ 74.3973, 30.9094 ], [ 74.38302, 30.89533 ], [ 74.37072, 30.89521 ], [ 74.36589, 30.89294 ], [ 74.36694, 30.88634 ], [ 74.36091, 30.87366 ], [ 74.38219, 30.86037 ], [ 74.37791, 30.85834 ], [ 74.37403, 30.85976 ], [ 74.3695, 30.85736 ], [ 74.36459, 30.85732 ], [ 74.3685, 30.85182 ], [ 74.36713, 30.84906 ], [ 74.36338, 30.8472 ], [ 74.35511, 30.84845 ], [ 74.35423, 30.85266 ], [ 74.34822, 30.85495 ], [ 74.33878, 30.85255 ], [ 74.34056, 30.84903 ], [ 74.33246, 30.85097 ], [ 74.32505, 30.84963 ], [ 74.32039, 30.84656 ], [ 74.32012, 30.84195 ], [ 74.3222, 30.83858 ], [ 74.31922, 30.83285 ], [ 74.31976, 30.82734 ], [ 74.30926, 30.81758 ], [ 74.30235, 30.8081 ], [ 74.30139, 30.80385 ], [ 74.29928, 30.80464 ], [ 74.29476, 30.79446 ], [ 74.29823, 30.79376 ], [ 74.30115, 30.78967 ], [ 74.30679, 30.78921 ], [ 74.3018, 30.77936 ], [ 74.28971, 30.77509 ], [ 74.28662, 30.77585 ], [ 74.27433, 30.77344 ], [ 74.26477, 30.77699 ], [ 74.26089, 30.77446 ], [ 74.26075, 30.76975 ], [ 74.27358, 30.75337 ], [ 74.27432, 30.74415 ], [ 74.2862, 30.73502 ], [ 74.28144, 30.73084 ], [ 74.2748, 30.73719 ], [ 74.27126, 30.73217 ], [ 74.26839, 30.73435 ], [ 74.26902, 30.73028 ], [ 74.26708, 30.72635 ], [ 74.2609, 30.7231 ], [ 74.24915, 30.72589 ], [ 74.24175, 30.72595 ], [ 74.24531, 30.72438 ], [ 74.24517, 30.72289 ], [ 74.23257, 30.7245 ], [ 74.22721, 30.71883 ], [ 74.22747, 30.71285 ], [ 74.22512, 30.71309 ], [ 74.22324, 30.70959 ], [ 74.21915, 30.69349 ], [ 74.212, 30.68779 ], [ 74.20535, 30.67599 ], [ 74.1934, 30.66515 ], [ 74.18164, 30.66134 ], [ 74.17731, 30.6551 ], [ 74.1693, 30.64864 ], [ 74.16316, 30.64837 ], [ 74.15951, 30.6415 ], [ 74.15609, 30.64065 ], [ 74.15333, 30.63522 ], [ 74.14907, 30.6316 ], [ 74.13774, 30.62738 ], [ 74.12738, 30.63473 ], [ 74.12851, 30.63233 ], [ 74.12666, 30.62404 ], [ 74.12106, 30.62248 ], [ 74.11792, 30.60784 ], [ 74.105, 30.61919 ], [ 74.09592, 30.61141 ], [ 74.10188, 30.61094 ], [ 74.1013, 30.60319 ], [ 74.09522, 30.60112 ], [ 74.09859, 30.59054 ], [ 74.09626, 30.58726 ], [ 74.10192, 30.57913 ], [ 74.07346, 30.55459 ], [ 74.07988, 30.54826 ], [ 74.09087, 30.54936 ], [ 74.07994, 30.53157 ], [ 74.07228, 30.52287 ], [ 74.0635, 30.51916 ], [ 74.05733, 30.51862 ], [ 74.05211, 30.52618 ], [ 74.05007, 30.53715 ], [ 74.04779, 30.53959 ], [ 74.03922, 30.54256 ], [ 74.038, 30.53169 ], [ 74.03101, 30.52689 ], [ 74.02381, 30.52604 ], [ 74.01189, 30.53362 ], [ 74.01093, 30.52106 ], [ 74.01995, 30.51414 ], [ 73.99273, 30.51421 ], [ 73.98197, 30.50397 ], [ 73.97596, 30.49405 ], [ 73.96366, 30.48478 ], [ 73.96962, 30.47825 ], [ 73.96975, 30.47521 ], [ 73.96413, 30.45644 ], [ 73.95013, 30.46004 ], [ 73.94686, 30.46385 ], [ 73.94753, 30.46821 ], [ 73.94584, 30.46818 ], [ 73.94771, 30.48387 ], [ 73.93459, 30.49015 ], [ 73.93104, 30.47615 ], [ 73.93182, 30.46722 ], [ 73.92798, 30.46584 ], [ 73.93759, 30.45213 ], [ 73.93729, 30.44497 ], [ 73.92645, 30.43891 ], [ 73.93695, 30.43647 ], [ 73.94969, 30.43701 ], [ 73.96004, 30.44084 ], [ 73.96811, 30.44016 ], [ 73.972, 30.44411 ], [ 73.97375, 30.44389 ], [ 73.96631, 30.43233 ], [ 73.96435, 30.42422 ], [ 73.94924, 30.41728 ], [ 73.93631, 30.40183 ], [ 73.92157, 30.39756 ], [ 73.91394, 30.38254 ], [ 73.9005, 30.37266 ], [ 73.89235, 30.36899 ], [ 73.89043, 30.36961 ], [ 73.88529, 30.36637 ], [ 73.88406, 30.36702 ], [ 73.87985, 30.35977 ], [ 73.90259, 30.34909 ], [ 73.9149, 30.33455 ], [ 73.93092, 30.3201 ], [ 73.94064, 30.29933 ], [ 73.95648, 30.27605 ], [ 73.96392, 30.25716 ], [ 73.97259, 30.19813 ], [ 73.97378, 30.18296 ], [ 73.97203, 30.17503 ], [ 73.96817, 30.16846 ], [ 73.96799, 30.14368 ], [ 73.97072, 30.12507 ], [ 73.97512, 30.12002 ], [ 73.9676, 30.11891 ], [ 73.95216, 30.10402 ], [ 73.9494, 30.09589 ], [ 73.92987, 30.06854 ], [ 73.90402, 30.05003 ], [ 73.89375, 30.02234 ], [ 73.88626, 30.01207 ], [ 73.88624, 29.99609 ], [ 73.89574, 29.98126 ], [ 73.89468, 29.97383 ], [ 74.10168, 29.96706 ], [ 74.52716, 29.94279 ] ] ] } }
]
}
