{"type": "FeatureCollection", "features": [{"type": "Feature", "properties": {"name": "Ludhiana", "source": "geoBoundaries gbOpen IND ADM2 (CC BY 4.0), https://www.geoboundaries.org", "area_ha": 369961, "simplified_tolerance_deg": 0.0001}, "geometry": {"type": "Polygon", "coordinates": [[[76.32369, 30.8791], [76.32114, 30.87842], [76.32029, 30.87801], [76.31798, 30.87409], [76.31709, 30.87366], [76.31634, 30.87376], [76.31515, 30.87329], [76.31559, 30.87259], [76.31553, 30.87089], [76.31483, 30.86991], [76.31397, 30.86919], [76.31221, 30.86848], [76.30854, 30.86775], [76.30633, 30.86707], [76.3033, 30.86549], [76.30034, 30.86332], [76.30016, 30.86271], [76.30058, 30.86062], [76.3015, 30.85842], [76.30254, 30.85705], [76.30508, 30.85243], [76.30981, 30.84506], [76.31052, 30.84334], [76.31144, 30.84054], [76.31128, 30.83941], [76.31077, 30.83786], [76.3083, 30.83613], [76.30469, 30.83426], [76.30379, 30.83362], [76.30043, 30.83245], [76.29424, 30.82916], [76.2897, 30.82641], [76.28628, 30.82383], [76.28499, 30.82249], [76.28409, 30.82128], [76.28369, 30.82017], [76.28325, 30.81702], [76.28333, 30.81499], [76.28515, 30.80899], [76.28557, 30.80712], [76.28611, 30.80613], [76.28667, 30.80382], [76.2849, 30.80176], [76.28114, 30.79939], [76.27714, 30.79734], [76.27427, 30.7961], [76.27346, 30.79596], [76.27169, 30.79642], [76.26945, 30.79656], [76.26702, 30.79168], [76.26675, 30.79087], [76.26606, 30.79029], [76.26493, 30.78999], [76.264, 30.78927], [76.26173, 30.78493], [76.26149, 30.78311], [76.26165, 30.78139], [76.26243, 30.77962], [76.26518, 30.77726], [76.26779, 30.77637], [76.27186, 30.7759], [76.27405, 30.77606], [76.28155, 30.77797], [76.28392, 30.77824], [76.28501, 30.77826], [76.28906, 30.77677], [76.28993, 30.77631], [76.29237, 30.77453], [76.29368, 30.77315], [76.29617, 30.7713], [76.29681, 30.77022], [76.2975, 30.76942], [76.29834, 30.76862], [76.30028, 30.76726], [76.30063, 30.76633], [76.30179, 30.76494], [76.30283, 30.76375], [76.30434, 30.76249], [76.30518, 30.76149], [76.30601, 30.76102], [76.3077, 30.7604], [76.30944, 30.75885], [76.31028, 30.75666], [76.31045, 30.75535], [76.31029, 30.75396], [76.31, 30.75257], [76.30859, 30.75026], [76.30832, 30.74945], [76.30657, 30.74809], [76.30538, 30.7477], [76.30433, 30.74715], [76.2994, 30.74364], [76.29854, 30.74258], [76.29803, 30.74164], [76.29777, 30.74005], [76.29832, 30.73519], [76.29807, 30.73399], [76.29761, 30.73342], [76.29591, 30.73214], [76.29408, 30.7311], [76.29188, 30.73021], [76.28999, 30.72923], [76.28762, 30.72899], [76.28846, 30.72833], [76.28742, 30.72754], [76.28539, 30.72512], [76.28555, 30.72324], [76.28678, 30.72021], [76.28763, 30.71866], [76.28886, 30.71734], [76.29075, 30.71491], [76.29348, 30.71411], [76.29513, 30.71397], [76.29687, 30.71353], [76.29748, 30.71272], [76.29926, 30.71122], [76.30027, 30.71059], [76.30192, 30.70867], [76.30443, 30.70539], [76.30546, 30.70327], [76.30633, 30.70198], [76.30735, 30.70105], [76.31279, 30.69946], [76.31673, 30.69925], [76.31889, 30.69737], [76.31963, 30.6962], [76.32071, 30.69526], [76.32585, 30.69135], [76.3264, 30.69077], [76.32738, 30.68889], [76.32736, 30.68823], [76.32659, 30.6866], [76.32539, 30.68588], [76.31789, 30.68499], [76.31115, 30.6827], [76.30965, 30.68203], [76.30743, 30.6804], [76.30546, 30.67923], [76.30409, 30.67861], [76.30285, 30.67849], [76.30081, 30.67895], [76.28256, 30.68056], [76.27901, 30.67733], [76.27352, 30.67494], [76.26633, 30.67444], [76.26014, 30.67627], [76.25545, 30.67958], [76.24819, 30.67863], [76.24453, 30.6787], [76.24428, 30.67815], [76.24321, 30.67723], [76.24218, 30.67641], [76.24097, 30.67577], [76.23732, 30.6741], [76.23505, 30.67398], [76.22903, 30.67409], [76.22809, 30.67433], [76.22633, 30.67444], [76.22403, 30.67525], [76.22077, 30.67792], [76.21835, 30.67807], [76.21514, 30.67614], [76.20912, 30.67428], [76.202, 30.67353], [76.19895, 30.67388], [76.18633, 30.66601], [76.18261, 30.67069], [76.18311, 30.67691], [76.18024, 30.67904], [76.1747, 30.67769], [76.17201, 30.67388], [76.17247, 30.66896], [76.17191, 30.66505], [76.16812, 30.65987], [76.16273, 30.65644], [76.15443, 30.65375], [76.15334, 30.65279], [76.15278, 30.63918], [76.15209, 30.63769], [76.13689, 30.6327], [76.13038, 30.62976], [76.12613, 30.62436], [76.12686, 30.62158], [76.11583, 30.6133], [76.12294, 30.60345], [76.12071, 30.59936], [76.12475, 30.59618], [76.1208, 30.59241], [76.1139, 30.58937], [76.11237, 30.58426], [76.11383, 30.57874], [76.11212, 30.57673], [76.10845, 30.57497], [76.10798, 30.562], [76.10185, 30.55974], [76.0966, 30.5616], [76.09269, 30.56643], [76.08959, 30.56691], [76.08441, 30.56155], [76.07752, 30.564], [76.07233, 30.56355], [76.0696, 30.56568], [76.0667, 30.56932], [76.06805, 30.57354], [76.06768, 30.57445], [76.06868, 30.57968], [76.06594, 30.58183], [76.06331, 30.5799], [76.06004, 30.57876], [76.05068, 30.58376], [76.0465, 30.58617], [76.03863, 30.58694], [76.03636, 30.589], [76.03314, 30.59949], [76.03377, 30.60393], [76.03292, 30.60721], [76.03111, 30.60881], [76.03108, 30.61313], [76.02887, 30.61462], [76.01176, 30.61208], [76.00791, 30.61069], [76.00447, 30.60199], [76.00087, 30.60026], [75.99297, 30.59779], [75.98814, 30.5979], [75.98449, 30.59664], [75.97581, 30.59157], [75.96355, 30.5874], [75.96123, 30.58499], [75.95836, 30.57588], [75.9514, 30.57162], [75.94331, 30.5692], [75.93855, 30.56874], [75.92957, 30.57566], [75.92788, 30.58609], [75.92437, 30.58839], [75.92603, 30.59116], [75.93179, 30.59547], [75.92666, 30.60527], [75.91958, 30.60885], [75.9129, 30.60833], [75.90634, 30.60413], [75.89666, 30.60535], [75.89118, 30.60984], [75.89101, 30.62008], [75.88155, 30.62504], [75.87672, 30.62977], [75.87726, 30.63801], [75.89748, 30.64618], [75.89842, 30.65379], [75.89579, 30.65978], [75.88719, 30.66353], [75.88508, 30.66768], [75.88495, 30.67148], [75.88164, 30.67476], [75.87323, 30.67626], [75.86018, 30.66992], [75.85441, 30.67033], [75.84389, 30.68605], [75.83911, 30.6871], [75.83916, 30.69477], [75.83241, 30.6916], [75.83117, 30.69125], [75.83008, 30.69505], [75.82572, 30.69343], [75.82096, 30.69108], [75.82026, 30.69178], [75.81808, 30.68786], [75.81716, 30.68788], [75.81715, 30.68839], [75.81689, 30.68842], [75.81687, 30.68895], [75.81605, 30.68919], [75.81532, 30.68804], [75.81115, 30.68994], [75.80837, 30.68512], [75.80834, 30.68136], [75.80902, 30.67547], [75.80845, 30.67517], [75.81247, 30.67354], [75.81245, 30.66595], [75.81465, 30.66475], [75.81534, 30.66419], [75.80849, 30.66455], [75.79869, 30.66235], [75.79213, 30.65941], [75.78655, 30.65901], [75.78795, 30.66385], [75.78564, 30.67104], [75.77862, 30.67184], [75.7712, 30.67196], [75.76655, 30.66533], [75.76655, 30.65583], [75.77655, 30.65745], [75.78006, 30.64598], [75.78204, 30.64288], [75.80103, 30.6312], [75.79574, 30.62743], [75.79389, 30.62575], [75.78989, 30.623], [75.78686, 30.62336], [75.78236, 30.629], [75.767, 30.63469], [75.76363, 30.63751], [75.76104, 30.6344], [75.75295, 30.63036], [75.7413, 30.62857], [75.73937, 30.62644], [75.73487, 30.61779], [75.73215, 30.61554], [75.72894, 30.61748], [75.72774, 30.61603], [75.72494, 30.6141], [75.72111, 30.61254], [75.71781, 30.61151], [75.71696, 30.61111], [75.71294, 30.61076], [75.69439, 30.61151], [75.693, 30.61145], [75.68987, 30.61049], [75.68764, 30.61041], [75.68443, 30.60997], [75.68196, 30.60912], [75.68201, 30.60793], [75.68234, 30.60649], [75.68235, 30.60535], [75.67904, 30.60109], [75.67859, 30.59938], [75.67878, 30.59681], [75.67919, 30.59564], [75.67966, 30.59486], [75.67701, 30.59266], [75.67289, 30.59047], [75.66948, 30.5897], [75.66186, 30.58859], [75.65119, 30.58882], [75.64079, 30.59037], [75.63635, 30.59198], [75.6325, 30.59378], [75.62831, 30.59464], [75.62625, 30.59532], [75.62519, 30.59499], [75.62407, 30.59414], [75.61883, 30.59151], [75.61139, 30.5884], [75.60975, 30.58866], [75.60859, 30.58909], [75.60799, 30.58904], [75.60418, 30.58671], [75.59994, 30.5847], [75.59881, 30.58355], [75.59662, 30.58181], [75.59132, 30.57789], [75.59003, 30.57624], [75.58899, 30.5729], [75.58621, 30.56926], [75.58296, 30.56565], [75.58273, 30.56604], [75.57777, 30.56398], [75.5772, 30.56359], [75.57579, 30.56325], [75.57491, 30.56341], [75.57361, 30.56339], [75.57325, 30.56358], [75.57209, 30.56364], [75.5711, 30.56389], [75.56581, 30.56538], [75.56373, 30.56639], [75.56263, 30.5671], [75.56095, 30.56861], [75.55968, 30.57066], [75.55884, 30.57242], [75.55809, 30.57296], [75.55385, 30.57554], [75.55028, 30.57655], [75.54914, 30.57672], [75.54497, 30.57428], [75.54469, 30.57389], [75.54333, 30.5692], [75.54008, 30.56314], [75.53799, 30.56205], [75.53425, 30.56297], [75.53333, 30.564], [75.53226, 30.56557], [75.53136, 30.56787], [75.52959, 30.57406], [75.52909, 30.57673], [75.52936, 30.57863], [75.52938, 30.58013], [75.52783, 30.58251], [75.52542, 30.58258], [75.52443, 30.58237], [75.52204, 30.58236], [75.52062, 30.582], [75.51999, 30.58166], [75.51927, 30.58096], [75.51767, 30.57843], [75.51649, 30.57757], [75.51451, 30.57678], [75.50959, 30.57526], [75.50904, 30.57484], [75.50876, 30.57404], [75.50886, 30.56929], [75.50919, 30.56908], [75.50829, 30.56808], [75.50847, 30.56787], [75.50717, 30.56581], [75.50433, 30.56691], [75.50021, 30.56881], [75.49776, 30.57029], [75.49038, 30.57639], [75.4905, 30.57653], [75.48837, 30.57814], [75.48955, 30.58087], [75.49404, 30.58626], [75.49562, 30.58946], [75.49588, 30.59067], [75.49598, 30.59284], [75.4957, 30.59394], [75.49598, 30.59525], [75.49592, 30.59617], [75.49441, 30.59752], [75.4954, 30.59814], [75.48781, 30.59943], [75.4796, 30.60211], [75.47092, 30.60324], [75.46861, 30.60502], [75.46609, 30.60368], [75.46484, 30.60034], [75.46299, 30.59896], [75.45683, 30.60067], [75.45372, 30.59846], [75.45102, 30.59437], [75.44851, 30.5923], [75.44441, 30.59268], [75.44242, 30.59377], [75.43958, 30.59123], [75.43217, 30.58878], [75.43179, 30.58459], [75.42849, 30.58325], [75.42543, 30.58438], [75.42021, 30.5846], [75.40891, 30.58216], [75.40648, 30.58431], [75.40609, 30.585], [75.40033, 30.5908], [75.40196, 30.59864], [75.40537, 30.60609], [75.40529, 30.61258], [75.40256, 30.61661], [75.39731, 30.62097], [75.39591, 30.62592], [75.38221, 30.62212], [75.37877, 30.62251], [75.37822, 30.62654], [75.38012, 30.63449], [75.37444, 30.64869], [75.38037, 30.65706], [75.3824, 30.66334], [75.38058, 30.67462], [75.37811, 30.67778], [75.37353, 30.68168], [75.37208, 30.68895], [75.374, 30.69711], [75.37206, 30.70562], [75.3735, 30.70886], [75.38159, 30.70876], [75.38417, 30.70998], [75.38655, 30.71287], [75.38754, 30.71564], [75.3878, 30.71668], [75.38811, 30.72169], [75.3832, 30.72288], [75.37814, 30.73], [75.37791, 30.73473], [75.38155, 30.73813], [75.37881, 30.74809], [75.38203, 30.75224], [75.38486, 30.75938], [75.38497, 30.76855], [75.38965, 30.77553], [75.39321, 30.78297], [75.39411, 30.79189], [75.39805, 30.8036], [75.39763, 30.80867], [75.3935, 30.81117], [75.38699, 30.81347], [75.37874, 30.82058], [75.37231, 30.83932], [75.37354, 30.8464], [75.37539, 30.8505], [75.37491, 30.85632], [75.38718, 30.86049], [75.38931, 30.86302], [75.39921, 30.8706], [75.40134, 30.87924], [75.40348, 30.88386], [75.40793, 30.88859], [75.40807, 30.89359], [75.40132, 30.89789], [75.39548, 30.90801], [75.39428, 30.90881], [75.37904, 30.91159], [75.38255, 30.92053], [75.38228, 30.92503], [75.3806, 30.92917], [75.37685, 30.92929], [75.37495, 30.92743], [75.37216, 30.92887], [75.37112, 30.93967], [75.36675, 30.94046], [75.36615, 30.95245], [75.3639, 30.95678], [75.36384, 30.95849], [75.36425, 30.96093], [75.36767, 30.96704], [75.36667, 30.97291], [75.35635, 30.98863], [75.37268, 30.98852], [75.39171, 30.98554], [75.41064, 30.9792], [75.42209, 30.98633], [75.42916, 30.98121], [75.44229, 30.98204], [75.4538, 30.97976], [75.45824, 30.97942], [75.459, 30.9789], [75.46335, 30.97903], [75.46605, 30.97882], [75.47623, 30.97661], [75.4953, 30.9703], [75.51119, 30.97373], [75.51959, 30.97189], [75.54003, 30.9725], [75.55005, 30.97459], [75.56318, 30.97594], [75.56446, 30.97802], [75.56525, 30.97815], [75.57543, 30.9775], [75.58223, 30.97353], [75.58477, 30.97104], [75.59221, 30.97192], [75.59712, 30.9689], [75.60351, 30.96866], [75.61166, 30.97069], [75.61528, 30.97365], [75.63325, 30.9761], [75.64476, 30.98107], [75.65902, 30.98244], [75.66428, 30.98425], [75.67494, 30.98542], [75.68157, 30.99001], [75.69214, 30.99312], [75.70088, 30.99481], [75.70321, 30.99468], [75.70796, 30.99868], [75.71945, 31.00061], [75.71919, 31.00478], [75.73161, 31.004], [75.73689, 31.00552], [75.73892, 31.01099], [75.76071, 31.0146], [75.76276, 31.01041], [75.7722, 31.0101], [75.77197, 31.0036], [75.77801, 31.00423], [75.77961, 31.0026], [75.78291, 31.00051], [75.78465, 30.99867], [75.78632, 30.99655], [75.78844, 30.99631], [75.7935, 30.99476], [75.8001, 30.99369], [75.80742, 30.99431], [75.81009, 30.99522], [75.81174, 30.99611], [75.81488, 30.99669], [75.82338, 30.99952], [75.82655, 31.00042], [75.82837, 31.00415], [75.84664, 31.01008], [75.8605, 31.00561], [75.86742, 31.00634], [75.86894, 31.00761], [75.87009, 31.0083], [75.87202, 31.0102], [75.88434, 31.00929], [75.88771, 31.00714], [75.89396, 31.00769], [75.89671, 31.0055], [75.89936, 31.00661], [75.89894, 31.01196], [75.90147, 31.01549], [75.90992, 31.01793], [75.91629, 31.0188], [75.92075, 31.01759], [75.92512, 31.0153], [75.92752, 31.01439], [75.92854, 31.0135], [75.93463, 31.0103], [75.94225, 31.00803], [75.9437, 31.0081], [75.95418, 31.01147], [75.95467, 31.01202], [75.95801, 31.01885], [75.97099, 31.01535], [75.97815, 31.01292], [75.97931, 31.01268], [75.97992, 31.01231], [75.98353, 31.01109], [75.9923, 31.00987], [75.99366, 31.00446], [75.99167, 30.99997], [76.00085, 30.98868], [76.00801, 30.99551], [76.01649, 30.99448], [76.03841, 30.99586], [76.04884, 30.99545], [76.05717, 30.997], [76.07789, 30.99515], [76.08783, 30.99336], [76.09146, 30.99208], [76.09418, 30.99079], [76.09734, 30.98917], [76.09815, 30.98827], [76.09863, 30.98804], [76.09972, 30.98793], [76.10354, 30.98683], [76.11496, 30.98738], [76.13559, 30.9861], [76.14187, 30.987], [76.15061, 30.99038], [76.15367, 30.99076], [76.15453, 30.99101], [76.16665, 30.99295], [76.17641, 30.99652], [76.18112, 30.99339], [76.18636, 30.99242], [76.18832, 30.99611], [76.18459, 31.00029], [76.19425, 31.00229], [76.208, 31.00573], [76.21445, 31.00618], [76.21893, 31.00039], [76.21909, 30.99865], [76.2207, 30.99854], [76.22093, 31.00227], [76.22081, 31.00351], [76.22026, 31.00488], [76.21819, 31.00716], [76.22045, 31.00745], [76.22376, 31.00753], [76.2251, 31.00718], [76.22719, 31.00571], [76.22851, 31.00507], [76.2321, 31.00404], [76.23275, 31.0041], [76.23308, 31.0044], [76.2338, 31.00565], [76.23361, 31.00622], [76.23266, 31.00742], [76.23287, 31.00904], [76.23589, 31.01166], [76.23885, 31.01218], [76.24256, 31.01313], [76.24512, 31.01459], [76.24597, 31.01481], [76.25677, 31.0163], [76.26057, 31.01831], [76.26406, 31.02062], [76.26507, 31.02163], [76.27066, 31.02187], [76.27178, 31.0217], [76.27323, 31.02052], [76.27417, 31.0193], [76.27734, 31.01701], [76.27818, 31.01658], [76.27909, 31.0128], [76.27922, 31.0114], [76.2805, 31.01122], [76.28163, 31.0104], [76.28234, 31.00931], [76.2844, 31.00803], [76.2878, 31.00761], [76.2891, 31.00705], [76.29307, 31.00581], [76.29567, 31.00538], [76.29779, 31.0053], [76.30104, 31.00368], [76.30348, 31.00354], [76.30551, 31.00386], [76.30676, 31.00386], [76.30895, 31.00357], [76.30929, 31.00322], [76.31051, 31.0027], [76.31354, 31.0017], [76.31537, 30.99736], [76.31732, 30.99555], [76.30918, 30.99135], [76.3168, 30.98279], [76.31769, 30.97156], [76.31651, 30.97034], [76.31717, 30.96342], [76.31749, 30.96236], [76.31794, 30.95699], [76.31832, 30.95625], [76.31875, 30.95474], [76.31886, 30.95347], [76.31961, 30.95039], [76.31977, 30.94879], [76.32104, 30.94549], [76.32254, 30.94018], [76.32347, 30.93823], [76.32362, 30.93712], [76.32417, 30.93595], [76.32441, 30.93452], [76.32559, 30.93218], [76.3251, 30.92992], [76.32238, 30.92724], [76.32169, 30.92731], [76.32118, 30.92704], [76.32037, 30.92697], [76.31608, 30.92491], [76.31468, 30.92406], [76.31541, 30.92286], [76.31628, 30.92013], [76.31736, 30.91875], [76.31879, 30.91793], [76.31957, 30.91672], [76.3207, 30.91559], [76.32096, 30.91442], [76.32065, 30.91091], [76.32039, 30.91031], [76.32005, 30.90775], [76.31983, 30.90325], [76.32005, 30.89853], [76.32031, 30.89745], [76.32044, 30.89464], [76.32052, 30.89143], [76.32034, 30.88895], [76.32065, 30.88857], [76.32087, 30.88788], [76.32057, 30.88342], [76.32369, 30.8791]]]}}]}